id,game,event_type,created_at,team_name,player_name,related_player_name,result,minute,extra_minute,previous_player_event,previous_player_event_at,seconds_after_previous_event,player_id,related_player_id,participant_id,fixture_id,Stadium,City,Country,Latitude,Longitude
116213644,Romania vs Ukraine (2024-06-17),Substitution,27:00.0,Romania,Bogdan Racovi»õan,Nicolae Stanciu,,87,0,,,,31616427,62905,18638,19032635,Olympiastadion,Berlin,Germany,52.5146,13.2394
116213524,Romania vs Ukraine (2024-06-17),Substitution,02:00.0,Ukraine,Volodymyr Brazhko,Taras Stepanenko,,62,0,,,,24065258,204483,18624,19032635,Allianz Arena,Munich,Germany,48.2188,11.6247
116213531,Romania vs Ukraine (2024-06-17),Substitution,02:00.0,Romania,Valentin MihƒÉilƒÉ,Florinel Coman,,62,0,,,,6013442,165479,18638,19032635,Signal Iduna Park,Dortmund,Germany,51.4929,7.4516
116213571,Romania vs Ukraine (2024-06-17),Yellowcard,07:00.0,Ukraine,Yukhym Konoplya,,,67,0,,,,4545319,,18624,19032635,Volksparkstadion,Hamburg,Germany,53.587,9.8986
116213583,Romania vs Ukraine (2024-06-17),Substitution,12:00.0,Ukraine,Oleksandr Tymchyk,Yukhym Konoplya,,72,0,,,,206981,4545319,18624,19032635,Mercedes-Benz Arena,Stuttgart,Germany,48.7928,9.232
116213533,Romania vs Ukraine (2024-06-17),Substitution,02:00.0,Ukraine,Roman Yaremchuk,Mykola Shaparenko,,62,0,,,,205933,205964,18624,19032635,Red Bull Arena,Leipzig,Germany,51.3455,12.348
116213534,Romania vs Ukraine (2024-06-17),Substitution,02:00.0,Ukraine,Andriy Yarmolenko,Viktor Tsygankov,,62,0,,,,204697,205635,18624,19032635,Deutsche Bank Park,Frankfurt,Germany,50.0684,8.6456
116213507,Romania vs Ukraine (2024-06-17),Goal,57:00.0,Romania,Denis DrƒÉgu»ô,Dennis Man,Mar-00,57,0,,,,165648,165622,18638,19032635,Merkur Spiel-Arena,Düsseldorf,Germany,51.2611,6.7353
116213593,Romania vs Ukraine (2024-06-17),Substitution,15:00.0,Romania,George Pu»ôca»ô,Denis DrƒÉgu»ô,,75,0,,,,130192,165648,18638,19032635,RheinEnergieStadion,Cologne,Germany,50.9335,6.8758
116213525,Romania vs Ukraine (2024-06-17),Substitution,02:00.0,Romania,Ianis Hagi,Dennis Man,,62,0,,,,129857,165622,18638,19032635,Arena AufSchalke,Gelsenkirchen,Germany,51.5548,7.067
116213596,Romania vs Ukraine (2024-06-17),Substitution,15:00.0,Romania,Adrian Rus,Marius Marin,,75,0,,,,116888,133835,18638,19032635,,,,,
116213620,Romania vs Ukraine (2024-06-17),Yellowcard,19:00.0,Romania,RƒÉzvan Marin,,,79,0,Goal,53:00.0,1560,64202,,18638,19032635,,,,,
116213493,Romania vs Ukraine (2024-06-17),Goal,53:00.0,Romania,RƒÉzvan Marin,,Feb-00,53,0,,,,64202,,18638,19032635,,,,,
116213437,Romania vs Ukraine (2024-06-17),Goal,29:00.0,Romania,Nicolae Stanciu,Dennis Man,Jan-00,29,0,,,,62905,165622,18638,19032635,,,,,
116213630,Romania vs Ukraine (2024-06-17),Substitution,23:00.0,Ukraine,Ruslan Malinovskyi,Georgiy Sudakov,,83,0,,,,62872,23277810,18624,19032635,,,,,
116479144,Germany vs Denmark (2024-06-29),Yellowcard,59:00.0,Germany,Julian Nagelsmann,,,59,0,Yellowcard,41:00.0,1080,,,18660,19032605,,,,,
116478453,Germany vs Denmark (2024-06-29),Yellowcard,41:00.0,Denmark,Kasper Hjulmand,,,41,0,,,,,,18583,19032605,,,,,
116481732,Germany vs Denmark (2024-06-29),VAR,32:00.0,Germany,Florian Wirtz,,,90,2,Substitution,21:00.0,660,37429246,,18660,19032605,,,,,
116481354,Germany vs Denmark (2024-06-29),Substitution,21:00.0,Germany,Florian Wirtz,Jamal Musiala,,81,0,,,,37429246,33186829,18660,19032605,,,,,
116479263,Germany vs Denmark (2024-06-29),Goal,08:00.0,Germany,Jamal Musiala,Nico Schlotterbeck,Feb-00,68,0,,,,33186829,3862352,18660,19032605,,,,,
116481342,Germany vs Denmark (2024-06-29),Substitution,21:00.0,Denmark,Victor Kristiansen,A. Bah,,81,0,,,,32796825,85996,18583,19032605,,,,,
116478451,Germany vs Denmark (2024-06-29),VAR,48:00.0,Germany,Nico Schlotterbeck,,,48,0,,,,3862352,,18660,19032605,,,,,
116481353,Germany vs Denmark (2024-06-29),Substitution,21:00.0,Denmark,Jonas Wind,R. H√∏jlund,,81,0,,,,537914,37325012,18583,19032605,,,,,
116479090,Germany vs Denmark (2024-06-29),Yellowcard,00:00.0,Denmark,Joakim Maehle,,,60,0,,,,84604,,18583,19032605,,,,,
116481352,Germany vs Denmark (2024-06-29),Substitution,21:00.0,Denmark,Jacob Bruun Larsen,A. Christensen,,81,0,,,,32792,4460,18583,19032605,,,,,
116481519,Germany vs Denmark (2024-06-29),Substitution,28:00.0,Germany,Waldemar Anton¬†,Leroy San√©,,88,0,,,,32728,4783,18660,19032605,,,,,
116478811,Germany vs Denmark (2024-06-29),Goal,53:00.0,Germany,Kai Havertz,,Jan-00,53,0,,,,32612,,18660,19032605,,,,,
116479291,Germany vs Denmark (2024-06-29),Substitution,09:00.0,Denmark,Yussuf Poulsen,A. Skov Olsen,,69,0,,,,32587,1685328,18583,19032605,,,,,
116481341,Germany vs Denmark (2024-06-29),Substitution,21:00.0,Germany,Benjamin Henrichs,David Raum,,81,0,,,,32566,36119,18660,19032605,,,,,
116479292,Germany vs Denmark (2024-06-29),Substitution,09:00.0,Denmark,Christian N√∏rgaard,T. Delaney,,69,0,,,,31609,33677,18583,19032605,,,,,
116479198,Germany vs Denmark (2024-06-29),Substitution,04:00.0,Germany,Niclas F√ºllkrug,ƒ∞lkay G√ºndoƒüan,,64,0,,,,31532,4842,18660,19032605,,,,,
116479004,Germany vs Denmark (2024-06-29),Yellowcard,57:00.0,Denmark,Joachim Andersen,,,57,0,VAR,48:00.0,540,25284,,18583,19032605,,,,,
116478876,Germany vs Denmark (2024-06-29),VAR,48:00.0,Denmark,Joachim Andersen,,,48,0,,,,25284,,18583,19032605,,,,,
116479199,Germany vs Denmark (2024-06-29),Substitution,04:00.0,Germany,Emre Can,Robert Andrich,,64,0,,,,1388,34880,18660,19032605,,,,,
116521748,Spain vs Georgia (2024-06-30),Goal,15:00.0,Spain,Nico Williams,Fabi√°n Ruiz,1-Mar,75,0,,,,37297544,186735,18710,19032607,,,,,
116521646,Spain vs Georgia (2024-06-30),Yellowcard,11:00.0,Georgia,Zuriko Davitashvili,,,71,0,Substitution,03:00.0,480,539555,,18692,19032607,,,,,
116521471,Spain vs Georgia (2024-06-30),Substitution,03:00.0,Georgia,Zuriko Davitashvili,G. Chakvetadze,,63,0,,,,539555,106821,18692,19032607,,,,,
116521487,Spain vs Georgia (2024-06-30),Substitution,03:00.0,Georgia,Georgiy Tsitaishvili,L. Lochoshvili,,63,0,,,,537257,104100,18692,19032607,,,,,
116521543,Spain vs Georgia (2024-06-30),Substitution,06:00.0,Spain,Mikel Oyarzabal,√Ålvaro Morata,,66,0,,,,186932,129660,18710,19032607,,,,,
116520536,Spain vs Georgia (2024-06-30),Goal,39:00.0,Spain,Rodri,Nico Williams,1-Jan,39,0,,,,186910,37297544,18710,19032607,,,,,
116521204,Spain vs Georgia (2024-06-30),Goal,51:00.0,Spain,Fabi√°n Ruiz,Lamine Yamal,1-Feb,51,0,,,,186735,37656179,18710,19032607,,,,,
116521529,Spain vs Georgia (2024-06-30),Substitution,06:00.0,Spain,Alejandro Grimaldo,Marc Cucurella,,66,0,,,,160208,448448,18710,19032607,,,,,
116520692,Spain vs Georgia (2024-06-30),Yellowcard,44:00.0,Spain,√Ålvaro Morata,,,44,0,,,,129660,,18710,19032607,,,,,
116520618,Spain vs Georgia (2024-06-30),Substitution,41:00.0,Georgia,Sandro Altunashvili,O. Kiteishvili,,41,0,,,,105926,106505,18692,19032607,,,,,
116521734,Spain vs Georgia (2024-06-30),VAR,14:00.0,Spain,Giorgi Gvelesiani,,,74,0,,,,103247,,18710,19032607,,,,,
116520002,Spain vs Georgia (2024-06-30),Goal,18:00.0,Georgia,Robin Le Normand,Otar Kakabadze,0-1,18,0,,,,100580,84624,18692,19032607,,,,,
116521845,Spain vs Georgia (2024-06-30),Substitution,18:00.0,Georgia,Budu Zivzivadze,G. Mikautadze,,78,0,,,,84625,13963088,18692,19032607,,,,,
116521999,Spain vs Georgia (2024-06-30),Goal,23:00.0,Spain,Dani Olmo,Mikel Oyarzabal,1-Apr,83,0,Substitution,52:00.0,1860,74060,186932,18710,19032607,,,,,
116521236,Spain vs Georgia (2024-06-30),Substitution,52:00.0,Spain,Dani Olmo,Pedri,,52,0,,,,74060,37288001,18710,19032607,,,,,
116521841,Spain vs Georgia (2024-06-30),Substitution,18:00.0,Georgia,Nika Kvekveskiri,G. Gvelesiani,,78,0,,,,56315,103247,18692,19032607,,,,,
116521929,Spain vs Georgia (2024-06-30),Substitution,21:00.0,Spain,Mikel Merino,Fabi√°n Ruiz,,81,0,,,,32710,186735,18710,19032607,,,,,
116521943,Spain vs Georgia (2024-06-30),Substitution,21:00.0,Spain,Jes√∫s Navas¬†,Daniel Carvajal,,81,0,,,,1435,31647,18710,19032607,,,,,
116409458,Ukraine vs Belgium (2024-06-26),Substitution,17:00.0,Belgium,Johan Bakayoko,J. Doku,,77,0,,,,37400407,23697990,18743,19032639,,,,,
116409192,Ukraine vs Belgium (2024-06-26),Substitution,10:00.0,Ukraine,Vladyslav Vanat,M. Shaparenko,,70,0,,,,24065263,205964,18624,19032639,,,,,
116409678,Ukraine vs Belgium (2024-06-26),Substitution,30:00.0,Belgium,Lo√Øs Openda,R. Lukaku,,90,0,,,,539993,995,18743,19032639,,,,,
116409023,Ukraine vs Belgium (2024-06-26),Substitution,02:00.0,Belgium,Orel Mangala,Y. Tielemans,,62,0,,,,523939,62342,18743,19032639,,,,,
116409151,Ukraine vs Belgium (2024-06-26),Yellowcard,09:00.0,Ukraine,Artem Dovbyk,,,69,0,,,,205978,,18624,19032639,,,,,
116409527,Ukraine vs Belgium (2024-06-26),Substitution,21:00.0,Ukraine,Andriy Yarmolenko,O. Svatok,,81,0,,,,204697,205651,18624,19032639,,,,,
116409189,Ukraine vs Belgium (2024-06-26),Substitution,10:00.0,Ukraine,Taras Stepanenko,V. Brazhko,,70,0,,,,204483,24065258,18624,19032639,,,,,
116409022,Ukraine vs Belgium (2024-06-26),Substitution,02:00.0,Belgium,Yannick Carrasco,L. Trossard,,62,0,,,,96092,61780,18743,19032639,,,,,
116409188,Ukraine vs Belgium (2024-06-26),Substitution,10:00.0,Ukraine,Ruslan Malinovskyi,R. Yaremchuk,,70,0,,,,62872,205933,18624,19032639,,,,,
116406532,Ukraine vs Belgium (2024-06-26),Yellowcard,43:00.0,Belgium,Wout Faes,,,43,0,,,,26955,,18743,19032639,,,,,
116408943,Ukraine vs Belgium (2024-06-26),Substitution,58:00.0,Ukraine,Oleksandr Zinchenko,V. Mykolenko,,58,0,,,,26603,537271,18624,19032639,,,,,
116148144,Italy vs Albania (2024-06-15),Substitution,17:00.0,Italy,Andrea Cambiaso,Federico Chiesa,,77,0,,,,37260234,129836,18658,19032617,,,,,
116147621,Italy vs Albania (2024-06-15),Yellowcard,51:00.0,Albania,Armando Broja,,,51,0,,,,23697427,,18641,19032617,,,,,
116147622,Italy vs Albania (2024-06-15),Yellowcard,51:00.0,Italy,Riccardo Calafiori,,,51,0,,,,23278684,,18658,19032617,,,,,
116148393,Italy vs Albania (2024-06-15),Substitution,27:00.0,Albania,Ernest Muci,Nedim Bajrami,,87,0,,,,10966299,198736,18641,19032617,,,,,
116148310,Italy vs Albania (2024-06-15),Substitution,23:00.0,Italy,Mateo Retegui,Gianluca Scamacca,,83,0,,,,9302266,30178,18658,19032617,,,,,
116148052,Italy vs Albania (2024-06-15),Yellowcard,14:00.0,Albania,Arb√´r Hoxha,,,74,0,Substitution,08:00.0,360,1486200,,18641,19032617,,,,,
116147973,Italy vs Albania (2024-06-15),Substitution,08:00.0,Albania,Arb√´r Hoxha,Jasir Asani,,68,0,,,,1486200,142532,18641,19032617,,,,,
116148514,Italy vs Albania (2024-06-15),Substitution,32:00.0,Italy,Michael Folorunsho,Nicol√≤ Barella,,90,2,,,,368455,130117,18658,19032617,,,,,
116145822,Italy vs Albania (2024-06-15),Goal,01:00.0,Albania,Nedim Bajrami,,0-1,1,0,,,,198736,,18641,19032617,,,,,
116145951,Italy vs Albania (2024-06-15),Goal,11:00.0,Italy,Alessandro Bastoni,Lorenzo Pellegrini,1-Jan,11,0,,,,133797,129946,18658,19032617,,,,,
116146022,Italy vs Albania (2024-06-15),Goal,16:00.0,Italy,Nicol√≤ Barella,,1-Feb,16,0,,,,130117,,18658,19032617,,,,,
116146119,Italy vs Albania (2024-06-15),Yellowcard,22:00.0,Italy,Lorenzo Pellegrini,,,22,0,,,,129946,,18658,19032617,,,,,
116148143,Italy vs Albania (2024-06-15),Substitution,17:00.0,Albania,Rey Manaj,Armando Broja,,77,0,,,,129812,23697427,18641,19032617,,,,,
116148142,Italy vs Albania (2024-06-15),Substitution,17:00.0,Italy,Bryan Cristante,Lorenzo Pellegrini,,77,0,,,,129467,129946,18658,19032617,,,,,
116147974,Italy vs Albania (2024-06-15),Substitution,08:00.0,Albania,Qazim Laci,Taulant Seferi,,68,0,,,,78462,142613,18641,19032617,,,,,
116148311,Italy vs Albania (2024-06-15),Substitution,23:00.0,Italy,Matteo Darmian,Federico Dimarco,,83,0,,,,933,129842,18658,19032617,,,,,
116607644,Portugal vs France (2024-07-05),Substitution,14:00.0,Portugal,Francisco Concei√ß√£o,Jo√£o Cancelo,,74,0,,,,37328006,160956,18701,19032602,,,,,
116609294,Portugal vs France (2024-07-05),Substitution,46:00.0,France,Bradley Barcola,Kylian Mbapp√©,,106,0,Penalty Shootout Goal,07:00.0,5940,37317369,96611,18647,19032602,,,,,
116609393,Portugal vs France (2024-07-05),Penalty Shootout Goal,07:00.0,France,Bradley Barcola,,4-Feb,7,0,,,,37317369,,18647,19032602,,,,,
116609408,Portugal vs France (2024-07-05),Penalty Shootout Goal,08:00.0,Portugal,Nuno Mendes,,4-Mar,8,0,,,,37262099,,18701,19032602,,,,,
116609327,Portugal vs France (2024-07-05),Substitution,59:00.0,Portugal,Matheus Nunes,Vitinha,,119,0,,,,21781428,4545430,18701,19032602,,,,,
116607685,Portugal vs France (2024-07-05),Yellowcard,24:00.0,France,William Saliba,,,84,0,,,,17544737,,18647,19032602,,,,,
116607763,Portugal vs France (2024-07-05),Substitution,31:00.0,Portugal,Youssouf Fofana,Jo√£o Palhinha,,91,0,Penalty Shootout Goal,03:00.0,5280,3510051,160072,18701,19032602,,,,,
116609352,Portugal vs France (2024-07-05),Penalty Shootout Goal,03:00.0,France,Youssouf Fofana,,2-Jan,3,0,,,,3510051,,18647,19032602,,,,,
116609368,Portugal vs France (2024-07-05),Penalty Shootout Goal,05:00.0,France,Jules Kound√©,,3-Feb,5,0,,,,337394,,18647,19032602,,,,,
116609425,Portugal vs France (2024-07-05),Penalty Shootout Goal,09:00.0,France,Theo Hern√°ndez,,5-Mar,9,0,,,,186995,,18647,19032602,,,,,
116609296,Portugal vs France (2024-07-05),Substitution,46:00.0,Portugal,Jo√£o F√©lix,Rafael Le√£o,,106,0,Penalty Shootout Missed,06:00.0,6000,163152,540251,18701,19032602,,,,,
116609379,Portugal vs France (2024-07-05),Penalty Shootout Missed,06:00.0,Portugal,Jo√£o F√©lix,,3-Feb,6,0,,,,163152,,18701,19032602,,,,,
116607646,Portugal vs France (2024-07-05),Substitution,14:00.0,Portugal,N√©lson Semedo,Bruno Fernandes,,74,0,,,,160110,129602,18701,19032602,,,,,
116607676,Portugal vs France (2024-07-05),Yellowcard,19:00.0,Portugal,Jo√£o Palhinha,,,79,0,,,,160072,,18701,19032602,,,,,
116607716,Portugal vs France (2024-07-05),Substitution,32:00.0,France,R√∫ben Neves,Eduardo Camavinga,,90,2,,,,159699,23688922,18647,19032602,,,,,
116607692,Portugal vs France (2024-07-05),Substitution,26:00.0,France,Marcus Thuram,Randal Kolo Muani,,86,0,,,,99000,432872,18647,19032602,,,,,
116609359,Portugal vs France (2024-07-05),Penalty Shootout Goal,04:00.0,Portugal,Bernardo Silva,,2-Feb,4,0,,,,96353,,18701,19032602,,,,,
116607589,Portugal vs France (2024-07-05),Substitution,07:00.0,France,Ousmane Demb√©l√©,Antoine Griezmann,,67,0,Penalty Shootout Goal,01:00.0,3960,32403,185658,18647,19032602,,,,,
116609342,Portugal vs France (2024-07-05),Penalty Shootout Goal,01:00.0,France,Ousmane Demb√©l√©,,0-1,1,0,,,,32403,,18647,19032602,,,,,
116609345,Portugal vs France (2024-07-05),Penalty Shootout Goal,02:00.0,Portugal,Cristiano Ronaldo,,1-Jan,2,0,,,,580,,18701,19032602,,,,,
116635387,Netherlands vs Turkey (2024-07-06),Yellowcard,35:00.0,Turkey,Vincenzo Montella,,,90,5,,,,,,18716,19032603,,,,,
116635326,Netherlands vs Turkey (2024-07-06),Substitution,29:00.0,Turkey,Semih Kƒ±lƒ±√ßsoy,Kaan Ayhan,,89,0,,,,37564566,31878,18716,19032603,,,,,
116634313,Netherlands vs Turkey (2024-07-06),Yellowcard,30:00.0,Netherlands,Xavi Simons,,,30,0,,,,37317392,,18694,19032603,,,,,
116635155,Netherlands vs Turkey (2024-07-06),Substitution,13:00.0,Netherlands,Micky van de Ven,Nathan Ak√©,,73,0,,,,37296248,1869,18694,19032603,,,,,
116635398,Netherlands vs Turkey (2024-07-06),Redcard,36:00.0,Turkey,Bertuƒü Yƒ±ldƒ±rƒ±m,,,90,6,,,,34873979,,18716,19032603,,,,,
116635303,Netherlands vs Turkey (2024-07-06),Substitution,27:00.0,Netherlands,Joshua Zirkzee,Xavi Simons,,87,0,,,,9605680,37317392,18694,19032603,,,,,
116635298,Netherlands vs Turkey (2024-07-06),Substitution,27:00.0,Netherlands,Jeremie Frimpong,Memphis Depay,,87,0,,,,8403182,929,18694,19032603,,,,,
116635174,Netherlands vs Turkey (2024-07-06),Goal,16:00.0,Netherlands,Mert M√ºld√ºr,Denzel Dumfries,1-Feb,76,0,,,,2510388,26027,18694,19032603,,,,,
116635193,Netherlands vs Turkey (2024-07-06),Substitution,17:00.0,Turkey,Kerem Akt√ºrkoƒülu,Kenan Yƒ±ldƒ±z,,77,0,,,,534383,37598725,18716,19032603,,,,,
116635218,Netherlands vs Turkey (2024-07-06),Substitution,22:00.0,Turkey,Zeki √áelik,Samet Akaydin,,82,0,,,,450031,390543,18716,19032603,,,,,
116634386,Netherlands vs Turkey (2024-07-06),Goal,35:00.0,Turkey,Samet Akaydin,Arda G√ºler,0-1,35,0,,,,390543,37547467,18716,19032603,,,,,
116635192,Netherlands vs Turkey (2024-07-06),Substitution,17:00.0,Turkey,Okay Yoku≈ülu,Salih √ñzcan,,77,0,,,,201060,32622,18716,19032603,,,,,
116635364,Netherlands vs Turkey (2024-07-06),Yellowcard,33:00.0,Turkey,Cenk Tosun,,,90,3,Substitution,22:00.0,660,45863,,18716,19032603,,,,,
116635217,Netherlands vs Turkey (2024-07-06),Substitution,22:00.0,Turkey,Cenk Tosun,Mert M√ºld√ºr,,82,0,,,,45863,2510388,18716,19032603,,,,,
116635153,Netherlands vs Turkey (2024-07-06),Substitution,13:00.0,Netherlands,Joey Veerman,Tijjani Reijnders,,73,0,,,,29394,3156873,18694,19032603,,,,,
116635472,Netherlands vs Turkey (2024-07-06),Yellowcard,36:00.0,Netherlands,Wout Weghorst,,,90,6,Substitution,46:00.0,3000,25317,,18694,19032603,,,,,
116634895,Netherlands vs Turkey (2024-07-06),Substitution,46:00.0,Netherlands,Wout Weghorst,Steven Bergwijn,,46,0,,,,25317,25776,18694,19032603,,,,,
116635127,Netherlands vs Turkey (2024-07-06),Goal,10:00.0,Netherlands,Stefan de Vrij,Memphis Depay,1-Jan,70,0,,,,24015,929,18694,19032603,,,,,
116634996,Netherlands vs Turkey (2024-07-06),Yellowcard,54:00.0,Netherlands,Nathan Ak√©,,,54,0,,,,1869,,18694,19032603,,,,,
116635060,Netherlands vs Turkey (2024-07-06),Yellowcard,04:00.0,Netherlands,Virgil van Dijk,,,64,0,,,,1743,,18694,19032603,,,,,
116269454,Slovenia vs Serbia (2024-06-20),Substitution,22:00.0,Serbia,Lazar Samard≈æiƒá,Dusan Tadic,,82,0,,,,23707373,1351,18873,19032625,,,,,
116269491,Slovenia vs Serbia (2024-06-20),Yellowcard,34:00.0,Slovenia,Zan Vipotnik,,,90,4,Substitution,16:00.0,1080,23697933,,18630,19032625,,,,,
116269432,Slovenia vs Serbia (2024-06-20),Substitution,16:00.0,Slovenia,Zan Vipotnik,Benjamin Sesko,,76,0,,,,23697933,24818280,18630,19032625,,,,,
116269480,Slovenia vs Serbia (2024-06-20),Substitution,31:00.0,Slovenia,David Brekalo,Timi Max Elsnik,,90,1,,,,2823098,7159,18630,19032625,,,,,
116269453,Slovenia vs Serbia (2024-06-20),Substitution,22:00.0,Serbia,Veljko Birmancevic,Andrija Zivkovic,,82,0,,,,2510860,160928,18873,19032625,,,,,
116269410,Slovenia vs Serbia (2024-06-20),Goal,09:00.0,Slovenia,Zan Karnicnik,Timi Max Elsnik,Jan-00,69,0,,,,688941,7159,18630,19032625,,,,,
116269502,Slovenia vs Serbia (2024-06-20),Goal,35:00.0,Serbia,Luka Joviƒá,Ivan Iliƒá,1-Jan,90,5,Yellowcard,32:00.0,180,161284,1359363,18873,19032625,,,,,
116269482,Slovenia vs Serbia (2024-06-20),Yellowcard,32:00.0,Serbia,Luka Joviƒá,,,90,2,Substitution,04:00.0,1680,161284,,18873,19032625,,,,,
116269391,Slovenia vs Serbia (2024-06-20),Substitution,04:00.0,Serbia,Luka Joviƒá,Du≈°an Vlahoviƒá,,64,0,,,,161284,177988,18873,19032625,,,,,
116269382,Slovenia vs Serbia (2024-06-20),Yellowcard,54:00.0,Serbia,Sa≈°a Lukiƒá,,,54,0,,,,130248,,18873,19032625,,,,,
116269431,Slovenia vs Serbia (2024-06-20),Substitution,16:00.0,Slovenia,Benjamin Verbic,Petar Stojanoviƒá,,76,0,,,,84457,74146,18630,19032625,,,,,
116269472,Slovenia vs Serbia (2024-06-20),Yellowcard,27:00.0,Slovenia,Erik Janza,,,87,0,,,,81827,,18630,19032625,,,,,
116269393,Slovenia vs Serbia (2024-06-20),Substitution,04:00.0,Serbia,Sergej Milinkoviƒá-Saviƒá,Sa≈°a Lukiƒá,,64,0,,,,62511,130248,18873,19032625,,,,,
116269487,Slovenia vs Serbia (2024-06-20),Yellowcard,33:00.0,Serbia,Mijat Gacinovic,,,90,3,Substitution,46:00.0,2820,32537,,18873,19032625,,,,,
116269356,Slovenia vs Serbia (2024-06-20),Substitution,46:00.0,Serbia,Mijat Gacinovic,Filip Mladenovic,,46,0,,,,32537,32482,18873,19032625,,,,,
116269202,Slovenia vs Serbia (2024-06-20),Yellowcard,25:00.0,Serbia,Filip Mladenovic,,,25,0,,,,32482,,18873,19032625,,,,,
116269394,Slovenia vs Serbia (2024-06-20),Substitution,04:00.0,Slovenia,Jon Gorenc Stankovic,Jan Mlakar,,64,0,,,,3339,133994,18630,19032625,,,,,
116378905,Croatia vs Italy (2024-06-24),Yellowcard,39:00.0,Italy,Luciano Spalletti,,,90,9,,,,,,18658,19032620,,,,,
116378779,Croatia vs Italy (2024-06-24),Yellowcard,33:00.0,Italy,Riccardo Calafiori,,,90,3,,,,23278684,,18658,19032620,,,,,
116378249,Croatia vs Italy (2024-06-24),Yellowcard,24:00.0,Croatia,Luka Sucic,,,24,0,,,,22528446,,18588,19032620,,,,,
116378800,Croatia vs Italy (2024-06-24),Yellowcard,36:00.0,Italy,Nicol√≤ Fagioli,,,90,6,Substitution,21:00.0,900,4536538,,18658,19032620,,,,,
116378665,Croatia vs Italy (2024-06-24),Substitution,21:00.0,Croatia,Nicol√≤ Fagioli,Luka Modric,,81,0,,,,4536538,268,18588,19032620,,,,,
116378673,Croatia vs Italy (2024-06-24),Yellowcard,22:00.0,Croatia,Josip Stanisic,,,82,0,,,,3862426,,18588,19032620,,,,,
116378455,Croatia vs Italy (2024-06-24),Substitution,46:00.0,Italy,Davide Frattesi,Lorenzo Pellegrini,,46,0,,,,134015,129946,18658,19032620,,,,,
116378501,Croatia vs Italy (2024-06-24),Substitution,57:00.0,Italy,Federico Chiesa,Federico Dimarco,,57,0,,,,129836,129842,18658,19032620,,,,,
116378810,Croatia vs Italy (2024-06-24),Goal,38:00.0,Italy,Mattia Zaccagni,Riccardo Calafiori,1-Jan,90,8,Substitution,21:00.0,1020,129677,23278684,18658,19032620,,,,,
116378667,Croatia vs Italy (2024-06-24),Substitution,21:00.0,Italy,Mattia Zaccagni,Matteo Darmian,,81,0,,,,129677,933,18658,19032620,,,,,
116378594,Croatia vs Italy (2024-06-24),Yellowcard,13:00.0,Croatia,Luka Ivanusec,,,73,0,Substitution,10:00.0,180,74186,,18588,19032620,,,,,
116378555,Croatia vs Italy (2024-06-24),Substitution,10:00.0,Croatia,Luka Ivanusec,Mateo Kovacic,,70,0,,,,74186,73147,18588,19032620,,,,,
116378655,Croatia vs Italy (2024-06-24),Substitution,20:00.0,Italy,Lovro Majer,Jorginho,,80,0,,,,74116,129511,18658,19032620,,,,,
116378747,Croatia vs Italy (2024-06-24),Substitution,30:00.0,Croatia,Josip Juranovic,Andrej Kramaric,,90,0,,,,74000,1232,18588,19032620,,,,,
116378757,Croatia vs Italy (2024-06-24),Yellowcard,31:00.0,Croatia,Marcelo Brozovic,,,90,1,,,,73004,,18588,19032620,,,,,
116378633,Croatia vs Italy (2024-06-24),Yellowcard,18:00.0,Croatia,Marin Pongracic,,,78,0,,,,36681,,18588,19032620,,,,,
116378454,Croatia vs Italy (2024-06-24),Substitution,46:00.0,Croatia,Ante Budimir,Mario Pasalic,,46,0,,,,34700,73603,18588,19032620,,,,,
116378558,Croatia vs Italy (2024-06-24),Substitution,10:00.0,Croatia,I. Peri≈°iƒá,Luka Sucic,,70,0,,,,31002,22528446,18588,19032620,,,,,
116378599,Croatia vs Italy (2024-06-24),Substitution,15:00.0,Italy,Gianluca Scamacca,Giacomo Raspadori,,75,0,,,,30178,13238937,18658,19032620,,,,,
116378489,Croatia vs Italy (2024-06-24),VAR,53:00.0,Croatia,Andrej Kramaric,,,53,0,,,,1232,,18588,19032620,,,,,
116378515,Croatia vs Italy (2024-06-24),Yellowcard,00:00.0,Croatia,Luka Modric,,,60,0,Goal,55:00.0,300,268,,18588,19032620,,,,,
116378492,Croatia vs Italy (2024-06-24),Goal,55:00.0,Croatia,Luka Modric,Ante Budimir,Jan-00,55,0,Missed Penalty,54:00.0,60,268,34700,18588,19032620,,,,,
116378485,Croatia vs Italy (2024-06-24),Missed Penalty,54:00.0,Croatia,Luka Modric,Luka Modric,,54,0,,,,268,268,18588,19032620,,,,,
116234052,Portugal vs Czech Republic (2024-06-18),Substitution,03:00.0,Portugal,Gon√ßalo In√°cio,Diogo Dalot,,63,0,,,,37522785,164061,18701,19032641,,,,,
116234529,Portugal vs Czech Republic (2024-06-18),Yellowcard,33:00.0,Portugal,Francisco Concei√ß√£o,,,90,3,Goal,32:00.0,60,37328006,,18701,19032641,,,,,
116234480,Portugal vs Czech Republic (2024-06-18),Goal,32:00.0,Portugal,Francisco Concei√ß√£o,,1-Feb,90,2,Substitution,30:00.0,120,37328006,,18701,19032641,,,,,
116234419,Portugal vs Czech Republic (2024-06-18),Substitution,30:00.0,Portugal,Francisco Concei√ß√£o,Vitinha,,90,0,,,,37328006,4545430,18701,19032641,,,,,
116234020,Portugal vs Czech Republic (2024-06-18),Substitution,00:00.0,Czech Republic,Mojm√≠r Chytil,Jan Kuchta,,60,0,,,,26313942,80926,18718,19032641,,,,,
116234127,Portugal vs Czech Republic (2024-06-18),Goal,09:00.0,Portugal,Robin Hranac,,1-Jan,69,0,,,,24469159,,18701,19032641,,,,,
116234021,Portugal vs Czech Republic (2024-06-18),Substitution,00:00.0,Czech Republic,Ondrej Lingr,Patrik Schick,,60,0,,,,608247,80675,18718,19032641,,,,,
116233819,Portugal vs Czech Republic (2024-06-18),Yellowcard,39:00.0,Portugal,Rafael Le√£o,,,39,0,,,,540251,,18701,19032641,,,,,
116234418,Portugal vs Czech Republic (2024-06-18),Substitution,30:00.0,Portugal,Pedro Neto,Nuno Mendes,,90,0,,,,496775,37262099,18701,19032641,,,,,
116234433,Portugal vs Czech Republic (2024-06-18),Substitution,30:00.0,Portugal,N√©lson Semedo,Jo√£o Cancelo,,90,0,,,,160110,160956,18701,19032641,,,,,
116234373,Portugal vs Czech Republic (2024-06-18),VAR,27:00.0,Portugal,Diogo Jota,,,87,0,Substitution,03:00.0,1440,159917,,18701,19032641,,,,,
116234061,Portugal vs Czech Republic (2024-06-18),Substitution,03:00.0,Portugal,Diogo Jota,Rafael Le√£o,,63,0,,,,159917,540251,18701,19032641,,,,,
116234035,Portugal vs Czech Republic (2024-06-18),Goal,02:00.0,Czech Republic,Lukas Provod,Vladim√≠r Coufal,0-1,62,0,,,,83003,80304,18718,19032641,,,,,
116234271,Portugal vs Czech Republic (2024-06-18),Substitution,19:00.0,Czech Republic,Petr Sevcik,Pavel Sulc,,79,0,,,,80879,24469162,18718,19032641,,,,,
116234558,Portugal vs Czech Republic (2024-06-18),Substitution,33:00.0,Czech Republic,Tomas Chory,Tomas Holes,,90,3,,,,80707,79972,18718,19032641,,,,,
116234006,Portugal vs Czech Republic (2024-06-18),Yellowcard,57:00.0,Czech Republic,Patrik Schick,,,57,0,,,,80675,,18718,19032641,,,,,
116234270,Portugal vs Czech Republic (2024-06-18),Substitution,19:00.0,Czech Republic,Anton√≠n Bar√°k,Lukas Provod,,79,0,,,,80331,83003,18718,19032641,,,,,
116272717,Spain vs Italy (2024-06-20),Substitution,46:00.0,Italy,Andrea Cambiaso,Davide Frattesi,,46,0,,,,37260234,134015,18658,19032619,,,,,
116272759,Spain vs Italy (2024-06-20),Goal,55:00.0,Spain,Riccardo Calafiori,,Jan-00,55,0,,,,23278684,,18710,19032619,,,,,
116272955,Spain vs Italy (2024-06-20),Substitution,22:00.0,Italy,Giacomo Raspadori,Lorenzo Pellegrini,,82,0,,,,13238937,129946,18658,19032619,,,,,
116272817,Spain vs Italy (2024-06-20),Substitution,04:00.0,Italy,Mateo Retegui,Gianluca Scamacca,,64,0,,,,9302266,30178,18658,19032619,,,,,
116272883,Spain vs Italy (2024-06-20),Substitution,11:00.0,Spain,√Ålex Baena,Pedri,,71,0,,,,7698436,37288001,18710,19032619,,,,,
116272882,Spain vs Italy (2024-06-20),Substitution,11:00.0,Spain,Ferran Torres,Lamine Yamal,,71,0,,,,448389,37656179,18710,19032619,,,,,
116272931,Spain vs Italy (2024-06-20),Substitution,18:00.0,Spain,Mikel Oyarzabal,√Ålvaro Morata,,78,0,,,,186932,129660,18710,19032619,,,,,
116272651,Spain vs Italy (2024-06-20),Yellowcard,46:00.0,Spain,Rodri,,,45,1,,,,186910,,18710,19032619,,,,,
116272430,Spain vs Italy (2024-06-20),Yellowcard,15:00.0,Italy,Gianluigi Donnarumma,,,15,0,,,,129771,,18658,19032619,,,,,
116272818,Spain vs Italy (2024-06-20),Substitution,04:00.0,Italy,Mattia Zaccagni,Federico Chiesa,,64,0,,,,129677,129836,18658,19032619,,,,,
116272720,Spain vs Italy (2024-06-20),Substitution,46:00.0,Italy,Bryan Cristante,Jorginho,,46,0,Yellowcard,46:00.0,0,129467,129511,18658,19032619,,,,,
116272724,Spain vs Italy (2024-06-20),Yellowcard,46:00.0,Italy,Bryan Cristante,,,46,0,,,,129467,,18658,19032619,,,,,
116272856,Spain vs Italy (2024-06-20),Yellowcard,09:00.0,Spain,Robin Le Normand,,,69,0,,,,100580,,18710,19032619,,,,,
116273035,Spain vs Italy (2024-06-20),Substitution,34:00.0,Spain,Mikel Merino,Fabi√°n Ruiz,,90,4,,,,32710,186735,18710,19032619,,,,,
116273047,Spain vs Italy (2024-06-20),Yellowcard,36:00.0,Spain,Daniel Carvajal,,,90,6,,,,31647,,18710,19032619,,,,,
116272930,Spain vs Italy (2024-06-20),Substitution,18:00.0,Spain,Ayoze P√©rez,Nico Williams,,78,0,,,,1396,37297544,18710,19032619,,,,,
116512997,England vs Slovakia (2024-06-30),Yellowcard,07:00.0,England,Kobbie Mainoo,,,7,0,,,,37540234,,18645,19032608,,,,,
116517359,England vs Slovakia (2024-06-30),Goal,35:00.0,England,Jude Bellingham,Marc Gu√©hi,1-Jan,90,5,Yellowcard,17:00.0,4680,37255840,4536500,18645,19032608,,,,,
116513183,England vs Slovakia (2024-06-30),Yellowcard,17:00.0,England,Jude Bellingham,,,17,0,,,,37255840,,18645,19032608,,,,,
116516763,England vs Slovakia (2024-06-30),Substitution,06:00.0,England,Cole Palmer,Kieran Trippier,,66,0,,,,28912747,1016,18645,19032608,,,,,
116527671,England vs Slovakia (2024-06-30),Yellowcard,01:00.0,Slovakia,Tomas Suslov,,,120,1,Substitution,01:00.0,3600,24816762,,18648,19032608,,,,,
116516675,England vs Slovakia (2024-06-30),Substitution,01:00.0,Slovakia,Tomas Suslov,D. Strelec,,61,0,,,,24816762,9939024,18648,19032608,,,,,
116512927,England vs Slovakia (2024-06-30),Yellowcard,03:00.0,England,Marc Gu√©hi,,,3,0,,,,4536500,,18645,19032608,,,,,
116517978,England vs Slovakia (2024-06-30),Substitution,46:00.0,England,Conor Gallagher,Harry Kane,,106,0,,,,1494245,997,18645,19032608,,,,,
116516562,England vs Slovakia (2024-06-30),VAR,50:00.0,England,Phil Foden,,,50,0,,,,336133,,18645,19032608,,,,,
116516674,England vs Slovakia (2024-06-30),Substitution,01:00.0,Slovakia,Robert Bozenik,L. Harasl√≠n,,61,0,,,,182277,133633,18648,19032608,,,,,
116517078,England vs Slovakia (2024-06-30),Substitution,21:00.0,Slovakia,Matus Bero,O. Duda,,81,0,,,,180916,33793,18648,19032608,,,,,
116518089,England vs Slovakia (2024-06-30),Yellowcard,48:00.0,Slovakia,Denis Vavro,,,108,0,,,,180894,,18648,19032608,,,,,
116518109,England vs Slovakia (2024-06-30),Substitution,49:00.0,Slovakia,Lubomir Tupta,P. Pekar√≠k,,109,0,,,,133276,30844,18648,19032608,,,,,
116513442,England vs Slovakia (2024-06-30),Yellowcard,46:00.0,Slovakia,Milan Skriniar,,,45,1,,,,130142,,18648,19032608,,,,,
116518275,England vs Slovakia (2024-06-30),Yellowcard,54:00.0,Slovakia,Norbert Gyomber,,,114,0,Substitution,33:00.0,1260,129686,,18648,19032608,,,,,
116517291,England vs Slovakia (2024-06-30),Substitution,33:00.0,Slovakia,Norbert Gyomber,I. Schranz,,90,3,,,,129686,81501,18648,19032608,,,,,
116513247,England vs Slovakia (2024-06-30),Goal,25:00.0,Slovakia,Ivan Schranz,D. Strelec,0-1,25,0,,,,81501,9939024,18648,19032608,,,,,
116513140,England vs Slovakia (2024-06-30),Yellowcard,13:00.0,Slovakia,Juraj Kucka,,,13,0,,,,79268,,18648,19032608,,,,,
116517079,England vs Slovakia (2024-06-30),Substitution,21:00.0,Slovakia,Laszlo Benes,J. Kucka,,81,0,,,,33598,79268,18648,19032608,,,,,
116516996,England vs Slovakia (2024-06-30),Yellowcard,17:00.0,Slovakia,Peter Pekarik,,,77,0,,,,30844,,18648,19032608,,,,,
116517122,England vs Slovakia (2024-06-30),Substitution,24:00.0,England,Eberechi Eze,Kobbie Mainoo,,84,0,,,,7643,37540234,18645,19032608,,,,,
116517979,England vs Slovakia (2024-06-30),Substitution,46:00.0,England,Ezri Konsa,Jude Bellingham,,106,0,,,,7124,37255840,18645,19032608,,,,,
116517331,England vs Slovakia (2024-06-30),Substitution,34:00.0,England,Ivan Toney,Phil Foden,,90,4,,,,4341,336133,18645,19032608,,,,,
116517542,England vs Slovakia (2024-06-30),Goal,31:00.0,England,Harry Kane,Ivan Toney,1-Feb,91,0,,,,997,4341,18645,19032608,,,,,
116539598,France vs Belgium (2024-07-01),Yellowcard,16:00.0,Belgium,Domenico Tedesco,,,76,0,,,,,,18743,19032610,,,,,
116539746,France vs Belgium (2024-07-01),Substitution,28:00.0,Belgium,C. De Ketelaere,T. Castagne,,88,0,,,,23269660,62337,18743,19032610,,,,,
116537645,France vs Belgium (2024-07-01),Yellowcard,14:00.0,France,Aur√©lien Tchouam√©ni,,,14,0,,,,5270371,,18647,19032610,,,,,
116539830,France vs Belgium (2024-07-01),Yellowcard,33:00.0,Belgium,O. Mangala,,,90,3,Substitution,03:00.0,1800,523939,,18743,19032610,,,,,
116539439,France vs Belgium (2024-07-01),Substitution,03:00.0,Belgium,O. Mangala,L. Openda,,63,0,,,,523939,539993,18743,19032610,,,,,
116539428,France vs Belgium (2024-07-01),Substitution,02:00.0,France,Randal Kolo Muani,Marcus Thuram,,62,0,,,,432872,99000,18647,19032610,,,,,
116537687,France vs Belgium (2024-07-01),Yellowcard,23:00.0,France,Antoine Griezmann,,,23,0,,,,185658,,18647,19032610,,,,,
116537697,France vs Belgium (2024-07-01),Yellowcard,24:00.0,France,Adrien Rabiot,,,24,0,,,,95694,,18647,19032610,,,,,
116539747,France vs Belgium (2024-07-01),Substitution,28:00.0,Belgium,D. Luk√©bakio,Y. Carrasco,,88,0,,,,62871,96092,18743,19032610,,,,,
116539702,France vs Belgium (2024-07-01),Goal,25:00.0,France,J. Vertonghen,Randal Kolo Muani,Jan-00,85,0,Yellowcard,16:00.0,540,915,432872,18647,19032610,,,,,
116539578,France vs Belgium (2024-07-01),Yellowcard,16:00.0,Belgium,J. Vertonghen,,,76,0,,,,915,,18743,19032610,,,,,
116244094,Croatia vs Albania (2024-06-19),Substitution,24:00.0,Croatia,Martin Baturina,Andrej Kramaric,,84,0,,,,37550680,1232,18588,19032618,,,,,
116243757,Croatia vs Albania (2024-06-19),Substitution,46:00.0,Croatia,Luka Sucic,Lovro Majer,,46,0,,,,22528446,74116,18588,19032618,,,,,
116244233,Croatia vs Albania (2024-06-19),Yellowcard,34:00.0,Albania,Mirlind Daku,,,90,4,Substitution,25:00.0,540,1489787,,18641,19032618,,,,,
116244099,Croatia vs Albania (2024-06-19),Substitution,25:00.0,Albania,Mirlind Daku,Rey Manaj,,85,0,,,,1489787,129812,18641,19032618,,,,,
116244098,Croatia vs Albania (2024-06-19),Substitution,25:00.0,Albania,Arb√´r Hoxha,Ylber Ramadani,,85,0,,,,1486200,50828,18641,19032618,,,,,
116243840,Croatia vs Albania (2024-06-19),Substitution,04:00.0,Albania,Taulant Seferi,Jasir Asani,,64,0,,,,142613,142532,18641,19032618,,,,,
116243969,Croatia vs Albania (2024-06-19),Yellowcard,17:00.0,Albania,Elseid Hysaj,,,77,0,,,,129603,,18641,19032618,,,,,
116243062,Croatia vs Albania (2024-06-19),Goal,11:00.0,Albania,Qazim Laci,Jasir Asani,0-1,11,0,,,,78462,142532,18641,19032618,,,,,
116244097,Croatia vs Albania (2024-06-19),Substitution,24:00.0,Croatia,Borna Sosa,I. Peri≈°iƒá,,84,0,,,,74160,31002,18588,19032618,,,,,
116244162,Croatia vs Albania (2024-06-19),Yellowcard,27:00.0,Croatia,Ivica Ivusic,,,87,0,,,,73976,,18588,19032618,,,,,
116243755,Croatia vs Albania (2024-06-19),Substitution,46:00.0,Croatia,Mario Pasalic,Marcelo Brozovic,,46,0,,,,73603,73004,18588,19032618,,,,,
116244311,Croatia vs Albania (2024-06-19),Yellowcard,37:00.0,Albania,Klaus Gjasula,,,90,7,Goal,35:00.0,120,38117,,18641,19032618,,,,,
116244245,Croatia vs Albania (2024-06-19),Goal,35:00.0,Albania,Klaus Gjasula,,2-Feb,90,5,Goal,16:00.0,1140,38117,,18641,19032618,,,,,
116243937,Croatia vs Albania (2024-06-19),Goal,16:00.0,Croatia,Klaus Gjasula,,1-Feb,76,0,Substitution,12:00.0,240,38117,,18588,19032618,,,,,
116243884,Croatia vs Albania (2024-06-19),Substitution,12:00.0,Albania,Klaus Gjasula,Qazim Laci,,72,0,,,,38117,78462,18641,19032618,,,,,
116243867,Croatia vs Albania (2024-06-19),Substitution,09:00.0,Croatia,Ante Budimir,Bruno Petkovic,,69,0,,,,34700,131838,18588,19032618,,,,,
116243905,Croatia vs Albania (2024-06-19),Goal,14:00.0,Croatia,Andrej Kramaric,Ante Budimir,1-Jan,74,0,,,,1232,34700,18588,19032618,,,,,
116391627,France vs Poland (2024-06-25),Yellowcard,53:00.0,Poland,Michal Probierz,,,53,0,,,,,,18699,19032633,,,,,
116391672,France vs Poland (2024-06-25),Substitution,01:00.0,France,Eduardo Camavinga,Adrien Rabiot,,61,0,,,,23688922,95694,18647,19032633,,,,,
116390025,France vs Poland (2024-06-25),Yellowcard,24:00.0,Poland,Nicola Zalewski,,,24,0,,,,23288607,,18699,19032633,,,,,
116391773,France vs Poland (2024-06-25),Substitution,08:00.0,Poland,Michal Skoras,N. Zalewski,,68,0,,,,19625676,23288607,18699,19032633,,,,,
116391891,France vs Poland (2024-06-25),Substitution,22:00.0,France,Youssouf Fofana,Aur√©lien Tchouam√©ni,,82,0,,,,3510051,5270371,18647,19032633,,,,,
116391938,France vs Poland (2024-06-25),Substitution,26:00.0,France,Randal Kolo Muani,Ousmane Demb√©l√©,,86,0,,,,432872,32403,18647,19032633,,,,,
116391674,France vs Poland (2024-06-25),Substitution,01:00.0,France,Antoine Griezmann,N'Golo Kant√©,,61,0,,,,185658,1193,18647,19032633,,,,,
116392004,France vs Poland (2024-06-25),Yellowcard,32:00.0,Poland,Karol ≈öwiderski,,,90,2,VAR,17:00.0,900,155310,,18699,19032633,,,,,
116391850,France vs Poland (2024-06-25),VAR,17:00.0,Poland,Karol ≈öwiderski,,,77,0,Substitution,08:00.0,540,155310,,18699,19032633,,,,,
116391774,France vs Poland (2024-06-25),Substitution,08:00.0,Poland,Karol ≈öwiderski,S. Szyma≈Ñski,,68,0,,,,155310,156180,18699,19032633,,,,,
116391645,France vs Poland (2024-06-25),Goal,56:00.0,France,Kylian Mbapp√©,,Jan-00,56,0,,,,96611,,18647,19032633,,,,,
116390205,France vs Poland (2024-06-25),Yellowcard,43:00.0,France,Adrien Rabiot,,,43,0,,,,95694,,18647,19032633,,,,,
116391969,France vs Poland (2024-06-25),Yellowcard,29:00.0,Poland,Pawe≈Ç Dawidowicz,,,89,0,,,,35311,,18699,19032633,,,,,
116391868,France vs Poland (2024-06-25),Goal,19:00.0,Poland,Robert Lewandowski,,1-Jan,79,0,VAR,17:00.0,120,31000,,18699,19032633,,,,,
116392026,France vs Poland (2024-06-25),VAR,17:00.0,Poland,Robert Lewandowski,,,77,0,,,,31000,,18699,19032633,,,,,
116391676,France vs Poland (2024-06-25),Substitution,01:00.0,France,Olivier Giroud,Bradley Barcola,,61,0,,,,798,37317369,18647,19032633,,,,,
116285138,Poland vs Austria (2024-06-21),Substitution,27:00.0,Poland,Kacper Urbanski,Piotr Zieli≈Ñski,,87,0,,,,37382883,129072,18699,19032630,,,,,
116284598,Poland vs Austria (2024-06-21),Yellowcard,56:00.0,Austria,Patrick Wimmer,,,56,0,Substitution,46:00.0,600,37259654,,18643,19032630,,,,,
116284418,Poland vs Austria (2024-06-21),Substitution,46:00.0,Austria,Patrick Wimmer,Florian Grillitsch,,46,0,,,,37259654,32378,18643,19032630,,,,,
116284711,Poland vs Austria (2024-06-21),Substitution,03:00.0,Austria,Alexander Prass,Phillipp Mwene,,63,0,,,,31626002,35141,18643,19032630,,,,,
116284798,Poland vs Austria (2024-06-21),Goal,06:00.0,Austria,Christoph Baumgartner,Alexander Prass,2-Jan,66,0,,,,3862700,31626002,18643,19032630,,,,,
116284698,Poland vs Austria (2024-06-21),Yellowcard,02:00.0,Poland,Jakub Moder,,,62,0,Substitution,46:00.0,960,1444078,,18699,19032630,,,,,
116284416,Poland vs Austria (2024-06-21),Substitution,46:00.0,Poland,Jakub Moder,Jakub Piotrowski,,46,0,,,,1444078,155889,18699,19032630,,,,,
116284560,Poland vs Austria (2024-06-21),Yellowcard,53:00.0,Poland,Bartosz Slisz,,,53,0,,,,506092,,18699,19032630,,,,,
116285039,Poland vs Austria (2024-06-21),Substitution,21:00.0,Austria,Romano Schmid,Christoph Baumgartner,,81,0,,,,459660,3862700,18643,19032630,,,,,
116281889,Poland vs Austria (2024-06-21),Goal,30:00.0,Poland,Krzysztof Piatek,,1-Jan,30,0,,,,155470,,18699,19032630,,,,,
116284648,Poland vs Austria (2024-06-21),Substitution,00:00.0,Poland,Karol ≈öwiderski,Adam Buksa,,60,0,,,,155310,155460,18699,19032630,,,,,
116281715,Poland vs Austria (2024-06-21),Goal,09:00.0,Austria,Gernot Trauner,Phillipp Mwene,0-1,9,0,,,,52302,35141,18643,19032630,,,,,
116284631,Poland vs Austria (2024-06-21),Substitution,59:00.0,Austria,Kevin Danso,Gernot Trauner,,59,0,,,,33079,52302,18643,19032630,,,,,
116285035,Poland vs Austria (2024-06-21),Substitution,21:00.0,Austria,Michael Gregoritsch,Marko Arnautovic,,81,0,,,,32361,1139,18643,19032630,,,,,
116284756,Poland vs Austria (2024-06-21),Yellowcard,04:00.0,Poland,Robert Lewandowski¬†,,,64,0,Substitution,00:00.0,240,31000,,18699,19032630,,,,,
116284647,Poland vs Austria (2024-06-21),Substitution,00:00.0,Poland,Robert Lewandowski¬†,Krzysztof Piatek,,60,0,,,,31000,155470,18699,19032630,,,,,
116284956,Poland vs Austria (2024-06-21),Substitution,15:00.0,Poland,Kamil Grosicki,Bartosz Slisz,,75,0,,,,5359,506092,18699,19032630,,,,,
116284989,Poland vs Austria (2024-06-21),Goal,18:00.0,Austria,Marko Arnautovic,,3-Jan,78,0,Yellowcard,10:00.0,480,1139,,18643,19032630,,,,,
116284875,Poland vs Austria (2024-06-21),Yellowcard,10:00.0,Austria,Marko Arnautovic,,,70,0,,,,1139,,18643,19032630,,,,,
116284982,Poland vs Austria (2024-06-21),Yellowcard,17:00.0,Poland,Wojciech Szczƒôsny,,,77,0,,,,805,,18699,19032630,,,,,
116220915,Austria vs France (2024-06-17),Substitution,00:00.0,Austria,Patrick Wimmer,Florian Grillitsch,,60,0,,,,37259654,32378,18643,19032629,,,,,
116221059,Austria vs France (2024-06-17),Substitution,28:00.0,Austria,Alexander Prass,Phillipp Mwene,,88,0,,,,31626002,35141,18643,19032629,,,,,
116220983,Austria vs France (2024-06-17),Substitution,11:00.0,France,Eduardo Camavinga,Adrien Rabiot,,71,0,,,,23688922,95694,18647,19032629,,,,,
116221026,Austria vs France (2024-06-17),Yellowcard,20:00.0,Austria,Christoph Baumgartner,,,80,0,,,,3862700,,18643,19032629,,,,,
116221078,Austria vs France (2024-06-17),Substitution,30:00.0,France,Youssouf Fofana,Antoine Griezmann,,90,0,,,,3510051,185658,18647,19032629,,,,,
116221086,Austria vs France (2024-06-17),Substitution,31:00.0,Austria,Romano Schmid,Konrad Laimer,,90,1,,,,459660,52585,18643,19032629,,,,,
116220984,Austria vs France (2024-06-17),Substitution,11:00.0,France,Randal Kolo Muani,Ousmane Demb√©l√©,,71,0,,,,432872,32403,18647,19032629,,,,,
116221076,Austria vs France (2024-06-17),Yellowcard,30:00.0,France,Kylian Mbapp√©,,,90,0,,,,96611,,18647,19032629,,,,,
116220726,Austria vs France (2024-06-17),Goal,38:00.0,France,Maximilian W√∂ber,Kylian Mbapp√©,0-1,38,0,Yellowcard,16:00.0,1320,52850,96611,18647,19032629,,,,,
116220587,Austria vs France (2024-06-17),Yellowcard,16:00.0,Austria,Maximilian W√∂ber,,,16,0,,,,52850,,18643,19032629,,,,,
116221042,Austria vs France (2024-06-17),Yellowcard,24:00.0,Austria,Konrad Laimer,,,84,0,,,,52585,,18643,19032629,,,,,
116220914,Austria vs France (2024-06-17),Substitution,59:00.0,Austria,Gernot Trauner,Maximilian W√∂ber,,59,0,,,,52302,52850,18643,19032629,,,,,
116220699,Austria vs France (2024-06-17),Yellowcard,33:00.0,Austria,Phillipp Mwene,,,33,0,,,,35141,,18643,19032629,,,,,
116221070,Austria vs France (2024-06-17),Yellowcard,33:00.0,Austria,Kevin Danso,,,90,3,,,,33079,,18643,19032629,,,,,
116220905,Austria vs France (2024-06-17),Yellowcard,56:00.0,France,Ousmane Demb√©l√©,,,56,0,,,,32403,,18647,19032629,,,,,
116220913,Austria vs France (2024-06-17),Substitution,59:00.0,Austria,Marko Arnautovic,Michael Gregoritsch,,59,0,,,,1139,32361,18643,19032629,,,,,
116221077,Austria vs France (2024-06-17),Substitution,30:00.0,France,Olivier Giroud,Kylian Mbapp√©,,90,0,,,,798,96611,18647,19032629,,,,,
116281417,Slovakia vs Ukraine (2024-06-21),Substitution,26:00.0,Slovakia,Leo Sauer,Ivan Schranz,,86,0,,,,37597231,81501,18648,19032636,,,,,
116281433,Slovakia vs Ukraine (2024-06-21),Substitution,32:00.0,Ukraine,Maksym Taloverov,Mykola Shaparenko,,90,2,,,,37259951,205964,18624,19032636,,,,,
116281280,Slovakia vs Ukraine (2024-06-21),Substitution,07:00.0,Slovakia,Adam Obert,Lukas Haraslin,,67,0,,,,24816773,133633,18648,19032636,,,,,
116281281,Slovakia vs Ukraine (2024-06-21),Substitution,07:00.0,Slovakia,Tomas Suslov,David Hancko,,67,0,,,,24816762,181449,18648,19032636,,,,,
116281263,Slovakia vs Ukraine (2024-06-21),Substitution,00:00.0,Slovakia,David Strelec,Robert Bozenik,,60,0,,,,9939024,182277,18648,19032636,,,,,
116281248,Slovakia vs Ukraine (2024-06-21),Goal,54:00.0,Ukraine,Mykola Shaparenko,Oleksandr Zinchenko,1-Jan,54,0,,,,205964,26603,18624,19032636,,,,,
116281290,Slovakia vs Ukraine (2024-06-21),Substitution,07:00.0,Ukraine,Oleksandr Zubkov,Andriy Yarmolenko,,67,0,,,,205946,204697,18624,19032636,,,,,
116281402,Slovakia vs Ukraine (2024-06-21),Yellowcard,24:00.0,Ukraine,Roman Yaremchuk,,,84,0,Goal,20:00.0,240,205933,,18624,19032636,,,,,
116281390,Slovakia vs Ukraine (2024-06-21),Goal,20:00.0,Ukraine,Roman Yaremchuk,Mykola Shaparenko,2-Jan,80,0,Substitution,07:00.0,780,205933,205964,18624,19032636,,,,,
116281287,Slovakia vs Ukraine (2024-06-21),Substitution,07:00.0,Ukraine,Roman Yaremchuk,Artem Dovbyk,,67,0,,,,205933,205978,18624,19032636,,,,,
116281411,Slovakia vs Ukraine (2024-06-21),Substitution,25:00.0,Ukraine,Sergiy Sydorchuk,Volodymyr Brazhko,,85,0,,,,204919,24065258,18624,19032636,,,,,
116280959,Slovakia vs Ukraine (2024-06-21),Goal,17:00.0,Slovakia,Ivan Schranz,Lukas Haraslin,Jan-00,17,0,,,,81501,133633,18648,19032636,,,,,
116281410,Slovakia vs Ukraine (2024-06-21),Substitution,25:00.0,Ukraine,Ruslan Malinovskyi,Mykhaylo Mudryk,,85,0,,,,62872,9938919,18624,19032636,,,,,
116281264,Slovakia vs Ukraine (2024-06-21),Substitution,00:00.0,Slovakia,Laszlo Benes,Ondrej Duda,,60,0,,,,33598,33793,18648,19032636,,,,,
116603993,Spain vs Germany (2024-07-05),Yellowcard,34:00.0,Germany,Florian Wirtz,,,94,0,Goal,29:00.0,300,37429246,,18660,19032601,,,,,
116603563,Spain vs Germany (2024-07-05),Goal,29:00.0,Germany,Florian Wirtz,Joshua Kimmich,1-Jan,89,0,Substitution,46:00.0,2580,37429246,32362,18660,19032601,,,,,
116602847,Spain vs Germany (2024-07-05),Substitution,46:00.0,Germany,Florian Wirtz,Leroy San√©,,46,0,,,,37429246,4783,18660,19032601,,,,,
116603687,Spain vs Germany (2024-07-05),Yellowcard,29:00.0,Germany,Nico Schlotterbeck,,,89,0,,,,3862352,,18660,19032601,,,,,
116603244,Spain vs Germany (2024-07-05),Yellowcard,14:00.0,Spain,Ferran Torres,,,74,0,Substitution,03:00.0,660,448389,,18710,19032601,,,,,
116603059,Spain vs Germany (2024-07-05),Substitution,03:00.0,Spain,Ferran Torres,Lamine Yamal,,63,0,,,,448389,37656179,18710,19032601,,,,,
116603366,Spain vs Germany (2024-07-05),Yellowcard,22:00.0,Spain,Unai Sim√≥n,,,82,0,,,,187215,,18710,19032601,,,,,
116603326,Spain vs Germany (2024-07-05),Substitution,20:00.0,Spain,Mikel Oyarzabal,√Ålvaro Morata,,80,0,,,,186932,129660,18710,19032601,,,,,
116604745,Spain vs Germany (2024-07-05),Yellowcard,50:00.0,Spain,Rodri,,,110,0,,,,186910,,18710,19032601,,,,,
116605572,Spain vs Germany (2024-07-05),Yellowcard,00:00.0,Spain,Fabi√°n Ruiz,,,120,0,Yellowcard,00:00.0,0,186735,,18710,19032601,,,,,
116605519,Spain vs Germany (2024-07-05),Yellowcard,00:00.0,Spain,Fabi√°n Ruiz,,,120,0,,,,186735,,18710,19032601,,,,,
116602846,Spain vs Germany (2024-07-05),Substitution,46:00.0,Spain,Nacho Fern√°ndez¬†,Robin Le Normand,,46,0,,,,186353,100580,18710,19032601,,,,,
116601838,Spain vs Germany (2024-07-05),Yellowcard,29:00.0,Spain,Robin Le Normand,,,29,0,,,,100580,,18710,19032601,,,,,
116602910,Spain vs Germany (2024-07-05),Goal,51:00.0,Spain,Dani Olmo,Lamine Yamal,Jan-00,51,0,Substitution,08:00.0,2580,74060,37656179,18710,19032601,,,,,
116601691,Spain vs Germany (2024-07-05),Substitution,08:00.0,Spain,Dani Olmo,Pedri,,8,0,,,,74060,37288001,18710,19032601,,,,,
116604973,Spain vs Germany (2024-07-05),Yellowcard,53:00.0,Germany,Deniz Undav,,,113,0,,,,41077,,18660,19032601,,,,,
116601827,Spain vs Germany (2024-07-05),Yellowcard,28:00.0,Germany,David Raum,,,28,0,,,,36119,,18660,19032601,,,,,
116602988,Spain vs Germany (2024-07-05),Yellowcard,56:00.0,Germany,Robert Andrich,,,56,0,Substitution,46:00.0,600,34880,,18660,19032601,,,,,
116602845,Spain vs Germany (2024-07-05),Substitution,46:00.0,Germany,Robert Andrich,Emre Can,,46,0,,,,34880,1388,18660,19032601,,,,,
116603929,Spain vs Germany (2024-07-05),Substitution,31:00.0,Germany,Waldemar Anton,Kai Havertz,,91,0,,,,32728,32612,18660,19032601,,,,,
116605305,Spain vs Germany (2024-07-05),Goal,59:00.0,Spain,Mikel Merino,Dani Olmo,1-Feb,119,0,Substitution,20:00.0,2340,32710,74060,18710,19032601,,,,,
116603318,Spain vs Germany (2024-07-05),Substitution,20:00.0,Spain,Mikel Merino,Nico Williams,,80,0,,,,32710,37297544,18710,19032601,,,,,
116603224,Spain vs Germany (2024-07-05),Yellowcard,13:00.0,Germany,Maximilian Mittelst√§dt,,,73,0,Substitution,57:00.0,960,32384,,18660,19032601,,,,,
116602995,Spain vs Germany (2024-07-05),Substitution,57:00.0,Germany,Maximilian Mittelst√§dt,David Raum,,57,0,,,,32384,36119,18660,19032601,,,,,
116601738,Spain vs Germany (2024-07-05),Yellowcard,13:00.0,Germany,Antonio R√ºdiger,,,13,0,,,,31837,,18660,19032601,,,,,
116605677,Spain vs Germany (2024-07-05),Yellow/Red card,06:00.0,Spain,Daniel Carvajal,,,120,6,Yellowcard,40:00.0,1560,31647,,18710,19032601,,,,,
116604345,Spain vs Germany (2024-07-05),Yellowcard,40:00.0,Spain,Daniel Carvajal,,,100,0,,,,31647,,18710,19032601,,,,,
116602991,Spain vs Germany (2024-07-05),Substitution,57:00.0,Germany,Niclas F√ºllkrug,ƒ∞lkay G√ºndoƒüan,,57,0,,,,31532,4842,18660,19032601,,,,,
116603115,Spain vs Germany (2024-07-05),Yellowcard,07:00.0,Germany,Toni Kroos,,,67,0,,,,30289,,18660,19032601,,,,,
116603319,Spain vs Germany (2024-07-05),Substitution,20:00.0,Germany,Thomas M√ºller,Jonathan Tah,,80,0,,,,30286,31836,18660,19032601,,,,,
116604396,Spain vs Germany (2024-07-05),Substitution,42:00.0,Spain,Joselu,Fabi√°n Ruiz,,102,0,,,,1468,186735,18710,19032601,,,,,
116230180,Turkey vs Georgia (2024-06-18),VAR,27:00.0,Turkey,Kenan Yƒ±ldƒ±z,,,27,0,,,,37598725,,18716,19032640,,,,,
116232324,Turkey vs Georgia (2024-06-18),Goal,05:00.0,Turkey,Arda G√ºler,Kaan Ayhan,1-Feb,65,0,,,,37547467,31878,18716,19032640,,,,,
116230221,Turkey vs Georgia (2024-06-18),Goal,32:00.0,Georgia,Georges Mikautadze,Giorgi Kochorashvili,1-Jan,32,0,,,,13963088,106911,18692,19032640,,,,,
116230164,Turkey vs Georgia (2024-06-18),Goal,25:00.0,Turkey,Mert M√ºld√ºr,,Jan-00,25,0,,,,2510388,,18716,19032640,,,,,
116232439,Turkey vs Georgia (2024-06-18),Substitution,14:00.0,Georgia,Zuriko Davitashvili,Giorgi Chakvetadze,,74,0,,,,539555,106821,18692,19032640,,,,,
116232917,Turkey vs Georgia (2024-06-18),Goal,37:00.0,Turkey,Kerem Akt√ºrkoƒülu,Orkun K√∂k√ß√º,1-Mar,90,7,Substitution,25:00.0,720,534383,4545376,18716,19032640,,,,,
116232624,Turkey vs Georgia (2024-06-18),Substitution,25:00.0,Turkey,Kerem Akt√ºrkoƒülu,Kenan Yƒ±ldƒ±z,,85,0,,,,534383,37598725,18716,19032640,,,,,
116232627,Turkey vs Georgia (2024-06-18),Substitution,25:00.0,Georgia,Zeki √áelik,Solomon Kvirkvelia,,85,0,,,,450031,169788,18692,19032640,,,,,
116232535,Turkey vs Georgia (2024-06-18),Substitution,19:00.0,Turkey,Yusuf Yazƒ±cƒ±,Arda G√ºler,,79,0,,,,202568,37547467,18716,19032640,,,,,
116230243,Turkey vs Georgia (2024-06-18),Yellowcard,35:00.0,Turkey,Abd√ºlkerim Bardakcƒ±,,,35,0,,,,201370,,18716,19032640,,,,,
116232239,Turkey vs Georgia (2024-06-18),Yellowcard,55:00.0,Georgia,Solomon Kvirkvelia,,,55,0,,,,169788,,18692,19032640,,,,,
116232534,Turkey vs Georgia (2024-06-18),Substitution,19:00.0,Turkey,Merih Demiral,Kaan Ayhan,,79,0,,,,164069,31878,18716,19032640,,,,,
116232722,Turkey vs Georgia (2024-06-18),Substitution,29:00.0,Georgia,Sandro Altunashvili,Anzor Mekvabishvili,,89,0,,,,105926,25922119,18692,19032640,,,,,
116232440,Turkey vs Georgia (2024-06-18),Substitution,14:00.0,Georgia,Luka Lochoshvili,Georgiy Tsitaishvili,,74,0,,,,104100,537257,18692,19032640,,,,,
116232650,Turkey vs Georgia (2024-06-18),Substitution,25:00.0,Turkey,Budu Zivzivadze,Mert M√ºld√ºr,,85,0,,,,84625,2510388,18716,19032640,,,,,
116232769,Turkey vs Georgia (2024-06-18),Substitution,32:00.0,Turkey,Salih √ñzcan,Hakan √áalhanoƒülu,,90,2,,,,32622,31825,18716,19032640,,,,,
116232703,Turkey vs Georgia (2024-06-18),Yellowcard,29:00.0,Turkey,Hakan √áalhanoƒülu,,,89,0,,,,31825,,18716,19032640,,,,,
116310107,Turkey vs Portugal (2024-06-22),Substitution,58:00.0,Turkey,Kenan Yƒ±ldƒ±z,Kaan Ayhan,,58,0,,,,37598725,31878,18716,19032643,,,,,
116310909,Turkey vs Portugal (2024-06-22),Substitution,28:00.0,Portugal,Jo√£o Neves,Vitinha,,88,0,,,,37592729,4545430,18701,19032643,,,,,
116310479,Turkey vs Portugal (2024-06-22),Substitution,10:00.0,Turkey,Arda G√ºler,Yunus Akg√ºn,,70,0,,,,37547467,5640825,18716,19032643,,,,,
116310826,Turkey vs Portugal (2024-06-22),Substitution,23:00.0,Portugal,Ant√≥nio Silva,Pepe,,83,0,,,,37354828,184934,18701,19032643,,,,,
116310115,Turkey vs Portugal (2024-06-22),Substitution,58:00.0,Turkey,ƒ∞smail Y√ºksek,Kerem Akt√ºrkoƒülu,,58,0,,,,22528506,534383,18716,19032643,,,,,
116307152,Turkey vs Portugal (2024-06-22),Yellowcard,39:00.0,Portugal,Rafael Le√£o,,,39,0,,,,540251,,18701,19032643,,,,,
116309844,Turkey vs Portugal (2024-06-22),Substitution,46:00.0,Portugal,Pedro Neto,Rafael Le√£o,,46,0,,,,496775,540251,18701,19032643,,,,,
116307213,Turkey vs Portugal (2024-06-22),Yellowcard,42:00.0,Turkey,Zeki √áelik,,,42,0,,,,450031,,18716,19032643,,,,,
116307199,Turkey vs Portugal (2024-06-22),Yellowcard,42:00.0,Turkey,Samet Akaydin,,,42,0,Goal,28:00.0,840,390543,,18716,19032643,,,,,
116306986,Turkey vs Portugal (2024-06-22),Goal,28:00.0,Portugal,Samet Akaydin,,0-2,28,0,,,,390543,,18701,19032643,,,,,
116309846,Turkey vs Portugal (2024-06-22),Substitution,46:00.0,Turkey,Yusuf Yazƒ±cƒ±,Orkun K√∂k√ß√º,,46,0,,,,202568,4545376,18716,19032643,,,,,
116306953,Turkey vs Portugal (2024-06-22),Yellowcard,25:00.0,Turkey,Abd√ºlkerim Bardakcƒ±,,,25,0,,,,201370,,18716,19032643,,,,,
116310630,Turkey vs Portugal (2024-06-22),Substitution,15:00.0,Turkey,Merih Demiral,Samet Akaydin,,75,0,,,,164069,390543,18716,19032643,,,,,
116310450,Turkey vs Portugal (2024-06-22),Substitution,08:00.0,Portugal,N√©lson Semedo,Jo√£o Cancelo,,68,0,,,,160110,160956,18701,19032643,,,,,
116307241,Turkey vs Portugal (2024-06-22),Yellowcard,45:00.0,Portugal,Jo√£o Palhinha,,,45,0,,,,160072,,18701,19032643,,,,,
116309845,Turkey vs Portugal (2024-06-22),Substitution,46:00.0,Portugal,R√∫ben Neves,Jo√£o Palhinha,,46,0,,,,159699,160072,18701,19032643,,,,,
116310025,Turkey vs Portugal (2024-06-22),Goal,56:00.0,Portugal,Bruno Fernandes,Cristiano Ronaldo,0-3,56,0,,,,129602,580,18701,19032643,,,,,
116306890,Turkey vs Portugal (2024-06-22),Goal,21:00.0,Portugal,Bernardo Silva,,0-1,21,0,,,,96353,,18701,19032643,,,,,
116543277,Portugal vs Slovenia (2024-07-01),Yellowcard,51:00.0,Portugal,Roberto Mart√≠nez Montoli√∫,,,111,0,Redcard,46:00.0,300,,,18701,19032609,,,,,
116543263,Portugal vs Slovenia (2024-07-01),Redcard,46:00.0,Slovenia,Matja≈æ Kek,,,105,1,,,,,,18630,19032609,,,,,
116540564,Portugal vs Slovenia (2024-07-01),Substitution,16:00.0,Portugal,Francisco Concei√ß√£o,Rafael Le√£o,,76,0,,,,37328006,540251,18701,19032609,,,,,
116540343,Portugal vs Slovenia (2024-07-01),Yellowcard,32:00.0,Slovenia,V. Drku≈°iƒá,,,32,0,,,,21413492,,18630,19032609,,,,,
116543206,Portugal vs Slovenia (2024-07-01),Yellowcard,46:00.0,Slovenia,J. Bijol,,,106,0,,,,1548632,,18630,19032609,,,,,
116540366,Portugal vs Slovenia (2024-07-01),Yellowcard,37:00.0,Slovenia,≈Ω. Karniƒçnik,,,37,0,,,,688941,,18630,19032609,,,,,
116540557,Portugal vs Slovenia (2024-07-01),Substitution,14:00.0,Slovenia,≈Ω. Celar,J. Mlakar,,74,0,,,,459196,133994,18630,19032609,,,,,
116543217,Portugal vs Slovenia (2024-07-01),Yellowcard,47:00.0,Slovenia,J. Balkovec,,,107,0,Penalty Shootout Missed,03:00.0,6240,183013,,18630,19032609,,,,,
116543484,Portugal vs Slovenia (2024-07-01),Penalty Shootout Missed,03:00.0,Slovenia,J. Balkovec,,Jan-00,3,0,,,,183013,,18630,19032609,,,,,
116543261,Portugal vs Slovenia (2024-07-01),Yellowcard,47:00.0,Portugal,Jo√£o Cancelo,,,107,0,,,,160956,,18701,19032609,,,,,
116543306,Portugal vs Slovenia (2024-07-01),Substitution,57:00.0,Portugal,N√©lson Semedo,Pepe,,117,0,,,,160110,184934,18701,19032609,,,,,
116540535,Portugal vs Slovenia (2024-07-01),Substitution,05:00.0,Portugal,Diogo Jota,Vitinha,,65,0,,,,159917,4545430,18701,19032609,,,,,
116543307,Portugal vs Slovenia (2024-07-01),Substitution,58:00.0,Portugal,R√∫ben Neves,Jo√£o Cancelo,,118,0,,,,159699,160956,18701,19032609,,,,,
116543497,Portugal vs Slovenia (2024-07-01),Penalty Shootout Goal,04:00.0,Portugal,Bruno Fernandes,,Feb-00,4,0,,,,129602,,18701,19032609,,,,,
116543199,Portugal vs Slovenia (2024-07-01),Substitution,46:00.0,Slovenia,J. Iliƒçiƒá,T. El≈°nik,,106,0,Penalty Shootout Missed,01:00.0,6300,128899,7159,18630,19032609,,,,,
116543456,Portugal vs Slovenia (2024-07-01),Penalty Shootout Missed,01:00.0,Slovenia,J. Iliƒçiƒá,,0-0,1,0,,,,128899,,18630,19032609,,,,,
116543555,Portugal vs Slovenia (2024-07-01),Penalty Shootout Goal,06:00.0,Portugal,Bernardo Silva,,Mar-00,6,0,,,,96353,,18701,19032609,,,,,
116540639,Portugal vs Slovenia (2024-07-01),Substitution,27:00.0,Slovenia,B. Verbiƒç,P. Stojanoviƒá,,87,0,Penalty Shootout Missed,05:00.0,4920,84457,74146,18630,19032609,,,,,
116543528,Portugal vs Slovenia (2024-07-01),Penalty Shootout Missed,05:00.0,Slovenia,B. Verbiƒç,,Feb-00,5,0,,,,84457,,18630,19032609,,,,,
116543137,Portugal vs Slovenia (2024-07-01),Yellowcard,41:00.0,Slovenia,J. Gorenc Stankoviƒç,,,101,0,Substitution,14:00.0,1620,3339,,18630,19032609,,,,,
116540559,Portugal vs Slovenia (2024-07-01),Substitution,14:00.0,Slovenia,J. Gorenc Stankoviƒç,A. ≈†porar,,74,0,,,,3339,182905,18630,19032609,,,,,
116543172,Portugal vs Slovenia (2024-07-01),Missed Penalty,45:00.0,Portugal,Cristiano Ronaldo,Cristiano Ronaldo,,105,0,Penalty Shootout Goal,02:00.0,6180,580,580,18701,19032609,,,,,
116543466,Portugal vs Slovenia (2024-07-01),Penalty Shootout Goal,02:00.0,Portugal,Cristiano Ronaldo,,Jan-00,2,0,,,,580,,18701,19032609,,,,,
116250953,Scotland vs Switzerland (2024-06-19),Substitution,26:00.0,Switzerland,Zeki Amdouni,Dan Ndoye,,86,0,,,,37261110,19978623,18708,19045702,,,,,
116250958,Scotland vs Switzerland (2024-06-19),Substitution,26:00.0,Switzerland,Leonidas Stergiou,Silvan Widmer,,86,0,,,,24817462,129609,18708,19045702,,,,,
116250889,Scotland vs Switzerland (2024-06-19),Substitution,15:00.0,Switzerland,Fabian Rieder,Rub√©n Vargas,,75,0,,,,24817439,1478864,18708,19045702,,,,,
116250082,Scotland vs Switzerland (2024-06-19),VAR,33:00.0,Switzerland,Dan Ndoye,,,33,0,,,,19978623,,18708,19045702,,,,,
116250806,Scotland vs Switzerland (2024-06-19),Yellowcard,51:00.0,Scotland,Scott McTominay,,,51,0,Goal,13:00.0,2280,455376,,18706,19045702,,,,,
116249772,Scotland vs Switzerland (2024-06-19),Goal,13:00.0,Scotland,Scott McTominay,Callum McGregor,Jan-00,13,0,,,,455376,8585,18706,19045702,,,,,
116250946,Scotland vs Switzerland (2024-06-19),Yellowcard,26:00.0,Switzerland,Vincent Sierro,,,86,0,Substitution,15:00.0,660,198045,,18708,19045702,,,,,
116250890,Scotland vs Switzerland (2024-06-19),Substitution,15:00.0,Switzerland,Vincent Sierro,Remo Freuler,,75,0,,,,198045,130145,18708,19045702,,,,,
116250870,Scotland vs Switzerland (2024-06-19),Yellowcard,08:00.0,Scotland,Scott McKenna,,,68,0,Substitution,01:00.0,420,173047,,18706,19045702,,,,,
116250840,Scotland vs Switzerland (2024-06-19),Substitution,01:00.0,Scotland,Scott McKenna,Kieran Tierney,,61,0,,,,173047,172960,18706,19045702,,,,,
116250979,Scotland vs Switzerland (2024-06-19),Substitution,30:00.0,Scotland,Lawrence Shankland,Ch√© Adams,,90,0,,,,172938,3596,18706,19045702,,,,,
116250978,Scotland vs Switzerland (2024-06-19),Substitution,30:00.0,Scotland,Ryan Christie,John McGinn,,90,0,,,,172752,172611,18706,19045702,,,,,
116250877,Scotland vs Switzerland (2024-06-19),Yellowcard,11:00.0,Scotland,John McGinn,,,71,0,,,,172611,,18706,19045702,,,,,
116250910,Scotland vs Switzerland (2024-06-19),Substitution,19:00.0,Scotland,Kenny McLean,Billy Gilmour,,79,0,,,,172385,6599973,18706,19045702,,,,,
116250951,Scotland vs Switzerland (2024-06-19),VAR,23:00.0,Switzerland,Breel Embolo,,,83,0,Substitution,00:00.0,1380,32538,,18708,19045702,,,,,
116250836,Scotland vs Switzerland (2024-06-19),Substitution,00:00.0,Switzerland,Breel Embolo,Xherdan Shaqiri,,60,0,,,,32538,1714,18708,19045702,,,,,
116250002,Scotland vs Switzerland (2024-06-19),Yellowcard,31:00.0,Switzerland,Ricardo Rodr√≠guez,,,31,0,,,,31653,,18708,19045702,,,,,
116249935,Scotland vs Switzerland (2024-06-19),Goal,26:00.0,Switzerland,Xherdan Shaqiri,,1-Jan,26,0,,,,1714,,18708,19045702,,,,,
116392008,Netherlands vs Austria (2024-06-25),Yellowcard,34:00.0,Austria,Leopold Querfeld,,,90,4,Substitution,02:00.0,1920,37536352,,18643,19032632,,,,,
116391693,Netherlands vs Austria (2024-06-25),Substitution,02:00.0,Austria,Leopold Querfeld,Florian Grillitsch,,62,0,,,,37536352,32378,18643,19032632,,,,,
116390115,Netherlands vs Austria (2024-06-25),Substitution,35:00.0,Netherlands,Xavi Simons,Joey Veerman,,35,0,,,,37317392,29394,18694,19032632,,,,,
116391719,Netherlands vs Austria (2024-06-25),Substitution,05:00.0,Netherlands,Micky van de Ven,Nathan Ak√©,,65,0,,,,37296248,1869,18694,19032632,,,,,
116390089,Netherlands vs Austria (2024-06-25),Yellowcard,33:00.0,Austria,Patrick Wimmer,,,33,0,,,,37259654,,18643,19032632,,,,,
116391681,Netherlands vs Austria (2024-06-25),Substitution,02:00.0,Austria,Christoph Baumgartner,Philipp Lienhart,,62,0,,,,3862700,186848,18643,19032632,,,,,
116389901,Netherlands vs Austria (2024-06-25),Goal,06:00.0,Austria,Donyell Malen,Alexander Prass,0-1,6,0,,,,537758,31626002,18643,19032632,,,,,
116391649,Netherlands vs Austria (2024-06-25),Goal,59:00.0,Austria,Romano Schmid,Florian Grillitsch,2-Jan,59,0,,,,459660,32378,18643,19032632,,,,,
116391682,Netherlands vs Austria (2024-06-25),Substitution,02:00.0,Austria,Konrad Laimer,Patrick Wimmer,,62,0,,,,52585,37259654,18643,19032632,,,,,
116390085,Netherlands vs Austria (2024-06-25),Yellowcard,32:00.0,Austria,Stefan Posch,,,32,0,,,,33770,,18643,19032632,,,,,
116391876,Netherlands vs Austria (2024-06-25),Goal,20:00.0,Austria,Marcel Sabitzer,Christoph Baumgartner,3-Feb,80,0,,,,32582,3862700,18643,19032632,,,,,
116391853,Netherlands vs Austria (2024-06-25),Substitution,18:00.0,Austria,Michael Gregoritsch,Marko Arnautovic,,78,0,,,,32361,1139,18643,19032632,,,,,
116391474,Netherlands vs Austria (2024-06-25),Goal,47:00.0,Netherlands,Cody Gakpo,Xavi Simons,1-Jan,47,0,,,,30062,37317392,18694,19032632,,,,,
116391793,Netherlands vs Austria (2024-06-25),Substitution,12:00.0,Netherlands,Wout Weghorst,Donyell Malen,,72,0,,,,25317,537758,18694,19032632,,,,,
116391728,Netherlands vs Austria (2024-06-25),Substitution,05:00.0,Netherlands,Georginio Wijnaldum,Tijjani Reijnders,,65,0,,,,1365,3156873,18694,19032632,,,,,
116391836,Netherlands vs Austria (2024-06-25),VAR,17:00.0,Netherlands,Memphis Depay,,,77,0,Goal,15:00.0,120,929,,18694,19032632,,,,,
116391832,Netherlands vs Austria (2024-06-25),Goal,15:00.0,Netherlands,Memphis Depay,Wout Weghorst,2-Feb,75,0,,,,929,25317,18694,19032632,,,,,
116391979,Netherlands vs Austria (2024-06-25),Substitution,32:00.0,Austria,Andreas Weimann,Romano Schmid,,90,2,,,,339,459660,18643,19032632,,,,,
116191724,Slovenia vs Denmark (2024-06-16),Substitution,34:00.0,Slovenia,David Brekalo,Andraz Sporar,,90,4,,,,2823098,182905,18630,19032622,,,,,
116190207,Slovenia vs Denmark (2024-06-16),Yellowcard,49:00.0,Denmark,Morten Hjulmand,,,49,0,,,,540189,,18583,19032622,,,,,
116191418,Slovenia vs Denmark (2024-06-16),Yellowcard,24:00.0,Slovenia,Zan Celar,,,84,0,Substitution,15:00.0,540,459196,,18630,19032622,,,,,
116191222,Slovenia vs Denmark (2024-06-16),Substitution,15:00.0,Slovenia,Zan Celar,Jan Mlakar,,75,0,,,,459196,133994,18630,19032622,,,,,
116191725,Slovenia vs Denmark (2024-06-16),Substitution,34:00.0,Slovenia,Jasmin Kurtic,Benjamin Sesko,,90,4,,,,129263,24818280,18630,19032622,,,,,
116191256,Slovenia vs Denmark (2024-06-16),Substitution,18:00.0,Denmark,Joakim Maehle,Victor Kristiansen,,78,0,,,,84604,32796825,18583,19032622,,,,,
116191101,Slovenia vs Denmark (2024-06-16),Substitution,07:00.0,Slovenia,Benjamin Verbic,Petar Stojanoviƒá,,67,0,,,,84457,74146,18630,19032622,,,,,
116191229,Slovenia vs Denmark (2024-06-16),Goal,17:00.0,Slovenia,Erik Janza,,1-Jan,77,0,,,,81827,,18630,19032622,,,,,
116190857,Slovenia vs Denmark (2024-06-16),Yellowcard,53:00.0,Slovenia,Petar Stojanoviƒá,,,53,0,,,,74146,,18630,19032622,,,,,
116191546,Slovenia vs Denmark (2024-06-16),Substitution,29:00.0,Denmark,Thomas Delaney,Morten Hjulmand,,89,0,,,,33677,540189,18583,19032622,,,,,
116191372,Slovenia vs Denmark (2024-06-16),Substitution,23:00.0,Denmark,Yussuf Poulsen,Rasmus H√∏jlund,,83,0,,,,32587,37325012,18583,19032622,,,,,
116191370,Slovenia vs Denmark (2024-06-16),Substitution,23:00.0,Denmark,Christian N√∏rgaard,Pierre-Emile H√∏jbjerg,,83,0,,,,31609,1744,18583,19032622,,,,,
116191356,Slovenia vs Denmark (2024-06-16),Substitution,23:00.0,Denmark,Kasper Dolberg,Jonas Wind,,83,0,,,,26033,537914,18583,19032622,,,,,
116191223,Slovenia vs Denmark (2024-06-16),Substitution,15:00.0,Slovenia,Jon Gorenc Stankovic,Timi Max Elsnik,,75,0,,,,3339,7159,18630,19032622,,,,,
116187156,Slovenia vs Denmark (2024-06-16),Goal,17:00.0,Denmark,Christian Eriksen,Jonas Wind,0-1,17,0,,,,992,537914,18583,19032622,,,,,
116357526,Scotland vs Hungary (2024-06-23),Yellowcard,41:00.0,Hungary,Kevin Csoboth,,,90,11,Goal,40:00.0,60,11705271,,18732,19045703,,,,,
116355750,Scotland vs Hungary (2024-06-23),Goal,40:00.0,Hungary,Kevin Csoboth,Roland Sallai,0-1,90,10,Substitution,26:00.0,840,11705271,114021,18732,19045703,,,,,
116354268,Scotland vs Hungary (2024-06-23),Substitution,26:00.0,Hungary,Kevin Csoboth,Bendeg√∫z Bolla,,86,0,,,,11705271,3169774,18732,19045703,,,,,
116352915,Scotland vs Hungary (2024-06-23),Yellowcard,50:00.0,Scotland,Scott McTominay,,,50,0,,,,455376,,18706,19045703,,,,,
116354386,Scotland vs Hungary (2024-06-23),Substitution,29:00.0,Scotland,Lewis Morgan,Andrew Robertson,,89,0,,,,172951,1078,18706,19045703,,,,,
116353819,Scotland vs Hungary (2024-06-23),Substitution,16:00.0,Scotland,Lawrence Shankland,Ch√© Adams,,76,0,,,,172938,3596,18706,19045703,,,,,
116354137,Scotland vs Hungary (2024-06-23),Substitution,23:00.0,Scotland,Ryan Christie,Billy Gilmour,,83,0,,,,172752,6599973,18706,19045703,,,,,
116354143,Scotland vs Hungary (2024-06-23),Substitution,23:00.0,Scotland,Kenny McLean,Anthony Ralston,,83,0,,,,172385,173129,18706,19045703,,,,,
116353808,Scotland vs Hungary (2024-06-23),Substitution,16:00.0,Scotland,Stuart Armstrong,John McGinn,,76,0,,,,172357,172611,18706,19045703,,,,,
116352116,Scotland vs Hungary (2024-06-23),Yellowcard,44:00.0,Hungary,Andr√°s Sch√§fer,,,44,0,,,,115485,,18732,19045703,,,,,
116353262,Scotland vs Hungary (2024-06-23),Substitution,01:00.0,Hungary,√Åd√°m Nagy,Callum Styles,,61,0,,,,114226,10351,18732,19045703,,,,,
116353726,Scotland vs Hungary (2024-06-23),Substitution,14:00.0,Hungary,Martin √Åd√°m,M√°rton D√°rdai,,74,0,,,,114118,23707369,18732,19045703,,,,,
116354279,Scotland vs Hungary (2024-06-23),Substitution,26:00.0,Hungary,Zsolt Nagy,Milos Kerkez,,86,0,,,,114032,37381778,18732,19045703,,,,,
116353735,Scotland vs Hungary (2024-06-23),Substitution,14:00.0,Hungary,Attila Szalai,Barnab√°s Varga,,74,0,,,,53557,52903,18732,19045703,,,,,
116353961,Scotland vs Hungary (2024-06-23),Yellowcard,15:00.0,Hungary,L. Kleinheisler,,,75,0,,,,32460,,18732,19045703,,,,,
116351551,Scotland vs Hungary (2024-06-23),Yellowcard,26:00.0,Hungary,Willi Orb√°n,,,26,0,,,,31077,,18732,19045703,,,,,
116351306,Scotland vs Hungary (2024-06-23),Yellowcard,18:00.0,Hungary,Callum Styles,,,18,0,,,,10351,,18732,19045703,,,,,
116378574,Albania vs Spain (2024-06-24),Substitution,12:00.0,Spain,Lamine Yamal,Ferran Torres,,72,0,,,,37656179,448389,18710,19032621,,,,,
116378521,Albania vs Spain (2024-06-24),Substitution,02:00.0,Spain,Ferm√≠n L√≥pez,Mikel Oyarzabal,,62,0,,,,37596363,186932,18710,19032621,,,,,
116378731,Albania vs Spain (2024-06-24),Yellowcard,29:00.0,Albania,Medon Berisha,,,89,0,Substitution,10:00.0,1140,37592696,,18641,19032621,,,,,
116378560,Albania vs Spain (2024-06-24),Substitution,10:00.0,Albania,Medon Berisha,Qazim Laci,,70,0,,,,37592696,78462,18641,19032621,,,,,
116378512,Albania vs Spain (2024-06-24),Substitution,59:00.0,Albania,Armando Broja,Rey Manaj,,59,0,,,,23697427,129812,18641,19032621,,,,,
116378666,Albania vs Spain (2024-06-24),Substitution,21:00.0,Albania,Ernest Muci,Jasir Asani,,81,0,,,,10966299,142532,18641,19032621,,,,,
116378695,Albania vs Spain (2024-06-24),Substitution,24:00.0,Spain,√Ålex Baena,Dani Olmo,,84,0,,,,7698436,74060,18710,19032621,,,,,
116378756,Albania vs Spain (2024-06-24),Yellowcard,30:00.0,Spain,Dani Vivian,,,90,0,,,,3510288,,18710,19032621,,,,,
116378562,Albania vs Spain (2024-06-24),Substitution,10:00.0,Albania,Arb√´r Hoxha,Nedim Bajrami,,70,0,,,,1486200,198736,18641,19032621,,,,,
116378188,Albania vs Spain (2024-06-24),Goal,13:00.0,Spain,Ferran Torres,Dani Olmo,0-1,13,0,,,,448389,74060,18710,19032621,,,,,
116378538,Albania vs Spain (2024-06-24),Yellowcard,06:00.0,Albania,Nedim Bajrami,,,66,0,,,,198736,,18641,19032621,,,,,
116378570,Albania vs Spain (2024-06-24),Substitution,12:00.0,Spain,√Ålvaro Morata,Joselu,,72,0,,,,129660,1468,18710,19032621,,,,,
116378450,Albania vs Spain (2024-06-24),Substitution,46:00.0,Spain,Robin Le Normand,Aymeric Laporte,,46,0,,,,100580,186299,18710,19032621,,,,,
116410930,Czech Republic vs Turkey (2024-06-26),Yellowcard,37:00.0,Turkey,Kenan Yƒ±ldƒ±z,,,37,0,,,,37598725,,18716,19032644,,,,,
116412001,Czech Republic vs Turkey (2024-06-26),Yellowcard,38:00.0,Turkey,Arda G√ºler,,,90,8,,,,37547467,,18716,19032644,,,,,
116411485,Czech Republic vs Turkey (2024-06-26),Substitution,21:00.0,Czech Republic,Matej Jurasek,D. Jur√°sek,,81,0,,,,37316360,37259977,18718,19032644,,,,,
116411620,Czech Republic vs Turkey (2024-06-26),Yellowcard,25:00.0,Czech Republic,Lukas Cerv,,,85,0,,,,37316349,,18718,19032644,,,,,
116411218,Czech Republic vs Turkey (2024-06-26),Yellowcard,49:00.0,Turkey,ƒ∞smail Y√ºksek,,,49,0,,,,22528506,,18716,19032644,,,,,
116411248,Czech Republic vs Turkey (2024-06-26),Substitution,55:00.0,Czech Republic,Matej Kovar,J. Stanƒõk,,55,0,,,,12759176,4569,18718,19032644,,,,,
116411554,Czech Republic vs Turkey (2024-06-26),Yellowcard,24:00.0,Czech Republic,Vitezslav Jaros,,,84,0,,,,9606060,,18718,19032644,,,,,
116411886,Czech Republic vs Turkey (2024-06-26),Yellowcard,35:00.0,Turkey,Orkun K√∂k√ß√º,,,90,5,Substitution,27:00.0,480,4545376,,18716,19032644,,,,,
116411646,Czech Republic vs Turkey (2024-06-26),Substitution,27:00.0,Turkey,Orkun K√∂k√ß√º,Hakan √áalhanoƒülu,,87,0,,,,4545376,31825,18716,19032644,,,,,
116411478,Czech Republic vs Turkey (2024-06-26),Yellowcard,20:00.0,Turkey,Mert M√ºld√ºr,,,80,0,,,,2510388,,18716,19032644,,,,,
116411390,Czech Republic vs Turkey (2024-06-26),Substitution,15:00.0,Turkey,Ondrej Lingr,Arda G√ºler,,75,0,,,,608247,37547467,18716,19032644,,,,,
116411386,Czech Republic vs Turkey (2024-06-26),Substitution,15:00.0,Czech Republic,Kerem Akt√ºrkoƒülu,L. Provod,,75,0,,,,534383,83003,18718,19032644,,,,,
116411617,Czech Republic vs Turkey (2024-06-26),Yellowcard,25:00.0,Turkey,Samet Akaydin,,,85,0,,,,390543,,18716,19032644,,,,,
116411347,Czech Republic vs Turkey (2024-06-26),Yellowcard,08:00.0,Turkey,Uƒüurcan √áakƒ±r,,,68,0,,,,201739,,18716,19032644,,,,,
116411301,Czech Republic vs Turkey (2024-06-26),Substitution,03:00.0,Turkey,Okay Yoku≈ülu,ƒ∞smail Y√ºksek,,63,0,,,,201060,22528506,18716,19032644,,,,,
116411316,Czech Republic vs Turkey (2024-06-26),Yellowcard,04:00.0,Turkey,Mert G√ºnok,,,64,0,,,,200715,,18716,19032644,,,,,
116411251,Czech Republic vs Turkey (2024-06-26),Substitution,55:00.0,Czech Republic,Jan Kuchta,M. Chytil,,55,0,,,,80926,26313942,18718,19032644,,,,,
116411722,Czech Republic vs Turkey (2024-06-26),Yellowcard,31:00.0,Czech Republic,Ladislav Krejci,,,90,1,,,,80902,,18718,19032644,,,,,
116412004,Czech Republic vs Turkey (2024-06-26),Redcard,38:00.0,Czech Republic,Tomas Chory,,,90,8,Substitution,55:00.0,2580,80707,,18718,19032644,,,,,
116411247,Czech Republic vs Turkey (2024-06-26),Substitution,55:00.0,Czech Republic,Tomas Chory,A. Hlo≈æek,,55,0,,,,80707,8101006,18718,19032644,,,,,
116410925,Czech Republic vs Turkey (2024-06-26),Yellowcard,34:00.0,Czech Republic,Patrik Schick,,,34,0,,,,80675,,18718,19032644,,,,,
116412003,Czech Republic vs Turkey (2024-06-26),Yellowcard,38:00.0,Czech Republic,Tomas Soucek,,,90,8,Goal,06:00.0,1920,80655,,18718,19032644,,,,,
116411328,Czech Republic vs Turkey (2024-06-26),Goal,06:00.0,Czech Republic,Tomas Soucek,R. Hran√°ƒç,1-Jan,66,0,,,,80655,24469159,18718,19032644,,,,,
116410780,Czech Republic vs Turkey (2024-06-26),Yellow/Red card,20:00.0,Czech Republic,Anton√≠n Bar√°k,,,20,0,Yellowcard,11:00.0,540,80331,,18718,19032644,,,,,
116410664,Czech Republic vs Turkey (2024-06-26),Yellowcard,11:00.0,Czech Republic,Anton√≠n Bar√°k,,,11,0,,,,80331,,18718,19032644,,,,,
116411779,Czech Republic vs Turkey (2024-06-26),Goal,34:00.0,Turkey,Cenk Tosun,Orkun K√∂k√ß√º,2-Jan,90,4,Substitution,15:00.0,1140,45863,4545376,18716,19032644,,,,,
116411393,Czech Republic vs Turkey (2024-06-26),Substitution,15:00.0,Turkey,Cenk Tosun,Kenan Yƒ±ldƒ±z,,75,0,,,,45863,37598725,18716,19032644,,,,,
116410895,Czech Republic vs Turkey (2024-06-26),Yellowcard,31:00.0,Turkey,Salih √ñzcan,,,31,0,,,,32622,,18716,19032644,,,,,
116411850,Czech Republic vs Turkey (2024-06-26),Yellowcard,35:00.0,Turkey,Kaan Ayhan,,,90,5,Substitution,46:00.0,2940,31878,,18716,19032644,,,,,
116411196,Czech Republic vs Turkey (2024-06-26),Substitution,46:00.0,Turkey,Kaan Ayhan,Salih √ñzcan,,46,0,,,,31878,32622,18716,19032644,,,,,
116411356,Czech Republic vs Turkey (2024-06-26),Yellowcard,06:00.0,Turkey,Hakan √áalhanoƒülu,,,66,0,Goal,51:00.0,900,31825,,18716,19032644,,,,,
116411227,Czech Republic vs Turkey (2024-06-26),Goal,51:00.0,Turkey,Hakan √áalhanoƒülu,ƒ∞smail Y√ºksek,0-1,51,0,,,,31825,22528506,18716,19032644,,,,,
116196659,Serbia vs England (2024-06-16),Yellowcard,23:00.0,Serbia,Dragan Stojkoviƒá,,,83,0,,,,,,18873,19032623,,,,,
116197088,Serbia vs England (2024-06-16),Substitution,26:00.0,England,Kobbie Mainoo,Jude Bellingham,,86,0,,,,37540234,37255840,18645,19032623,,,,,
116193933,Serbia vs England (2024-06-16),Goal,13:00.0,England,Jude Bellingham,Bukayo Saka,0-1,13,0,,,,37255840,16827155,18645,19032623,,,,,
116196174,Serbia vs England (2024-06-16),Substitution,14:00.0,Serbia,Veljko Birmancevic,Andrija Zivkovic,,74,0,,,,2510860,160928,18873,19032623,,,,,
116195863,Serbia vs England (2024-06-16),Substitution,09:00.0,England,Conor Gallagher,T. Alexander-Arnold,,69,0,,,,1494245,1917,18645,19032623,,,,,
116195066,Serbia vs England (2024-06-16),Substitution,46:00.0,Serbia,Ivan Iliƒá,Nemanja Gudelj,,46,0,,,,1359363,24071,18873,19032623,,,,,
116195561,Serbia vs England (2024-06-16),Substitution,01:00.0,Serbia,Luka Joviƒá,Sa≈°a Lukiƒá,,61,0,,,,161284,130248,18873,19032623,,,,,
116194587,Serbia vs England (2024-06-16),Substitution,43:00.0,Serbia,Filip Mladenovic,Filip Kostiƒá,,43,0,,,,32482,24235,18873,19032623,,,,,
116194424,Serbia vs England (2024-06-16),Yellowcard,39:00.0,Serbia,Nemanja Gudelj,,,39,0,,,,24071,,18873,19032623,,,,,
116196176,Serbia vs England (2024-06-16),Substitution,16:00.0,England,Jarrod Bowen,Bukayo Saka,,76,0,,,,1592,16827155,18645,19032623,,,,,
116196175,Serbia vs England (2024-06-16),Yellowcard,15:00.0,Serbia,Dusan Tadic,,,75,0,Substitution,01:00.0,840,1351,,18873,19032623,,,,,
116195560,Serbia vs England (2024-06-16),Substitution,01:00.0,Serbia,Dusan Tadic,Aleksandar Mitrovic,,61,0,,,,1351,1366,18873,19032623,,,,,
116392939,Denmark vs Serbia (2024-06-25),Substitution,17:00.0,Denmark,Victor Kristiansen,M. Hjulmand,,77,0,,,,32796825,540189,18583,19032627,,,,,
116392797,Denmark vs Serbia (2024-06-25),Substitution,46:00.0,Denmark,Andreas Skov Olsen,J. Wind,,46,0,,,,1685328,537914,18583,19032627,,,,,
116392490,Denmark vs Serbia (2024-06-25),Yellowcard,30:00.0,Denmark,Morten Hjulmand,,,30,0,,,,540189,,18583,19032627,,,,,
116392472,Denmark vs Serbia (2024-06-25),Yellowcard,27:00.0,Denmark,Jonas Wind,,,27,0,,,,537914,,18583,19032627,,,,,
116392328,Denmark vs Serbia (2024-06-25),Yellowcard,04:00.0,Serbia,Nikola Milenkoviƒá,,,4,0,,,,178032,,18873,19032627,,,,,
116392908,Denmark vs Serbia (2024-06-25),Substitution,07:00.0,Serbia,Du≈°an Vlahoviƒá,I. Iliƒá,,67,0,,,,177988,1359363,18873,19032627,,,,,
116392795,Denmark vs Serbia (2024-06-25),Substitution,46:00.0,Serbia,Luka Joviƒá,N. Gudelj,,46,0,,,,161284,24071,18873,19032627,,,,,
116392993,Denmark vs Serbia (2024-06-25),Substitution,27:00.0,Serbia,Sergej Milinkoviƒá-Saviƒá,S. Lukiƒá,,87,0,,,,62511,130248,18873,19032627,,,,,
116392937,Denmark vs Serbia (2024-06-25),Substitution,17:00.0,Denmark,Thomas Delaney,A. Bah,,77,0,,,,33677,85996,18583,19032627,,,,,
116393004,Denmark vs Serbia (2024-06-25),Substitution,28:00.0,Denmark,Yussuf Poulsen,C. Eriksen,,88,0,,,,32587,992,18583,19032627,,,,,
116392926,Denmark vs Serbia (2024-06-25),Substitution,13:00.0,Serbia,Filip Mladenovic,S. Mijailoviƒá,,73,0,,,,32482,172247,18873,19032627,,,,,
116392882,Denmark vs Serbia (2024-06-25),Substitution,59:00.0,Denmark,Kasper Dolberg,R. H√∏jlund,,59,0,,,,26033,37325012,18583,19032627,,,,,
116392971,Denmark vs Serbia (2024-06-25),Yellowcard,23:00.0,Serbia,Aleksandar Mitrovic,,,83,0,,,,1366,,18873,19032627,,,,,
116392798,Denmark vs Serbia (2024-06-25),Substitution,46:00.0,Serbia,Dusan Tadic,L. Samard≈æiƒá,,46,0,,,,1351,23707373,18873,19032627,,,,,
116112635,Germany vs Scotland (2024-06-14),Goal,10:00.0,Germany,Florian Wirtz,Joshua Kimmich,Jan-00,10,0,,,,37429246,32362,18660,19032613,,,,,
116112705,Germany vs Scotland (2024-06-14),Goal,19:00.0,Germany,Jamal Musiala,Kai Havertz,Feb-00,19,0,,,,33186829,32612,18660,19032613,,,,,
116113076,Germany vs Scotland (2024-06-14),Substitution,07:00.0,Scotland,Billy Gilmour,Callum McGregor,,67,0,,,,6599973,8585,18706,19032613,,,,,
116112862,Germany vs Scotland (2024-06-14),Redcard,44:00.0,Scotland,Ryan Porteous,,,44,0,,,,176702,,18706,19032613,,,,,
116112999,Germany vs Scotland (2024-06-14),Yellowcard,48:00.0,Scotland,Anthony Ralston,,,48,0,,,,173129,,18706,19032613,,,,,
116113184,Germany vs Scotland (2024-06-14),Substitution,17:00.0,Scotland,Scott McKenna,Kieran Tierney,,77,0,,,,173047,172960,18706,19032613,,,,,
116113244,Germany vs Scotland (2024-06-14),Substitution,22:00.0,Scotland,Lawrence Shankland,Ryan Christie,,82,0,,,,172938,172752,18706,19032613,,,,,
116113078,Germany vs Scotland (2024-06-14),Substitution,07:00.0,Scotland,Kenny McLean,John McGinn,,67,0,,,,172385,172611,18706,19032613,,,,,
116112784,Germany vs Scotland (2024-06-14),Yellowcard,31:00.0,Germany,Robert Andrich,,,31,0,,,,34880,,18660,19032613,,,,,
116112873,Germany vs Scotland (2024-06-14),Goal,46:00.0,Germany,Kai Havertz,,Mar-00,45,1,,,,32612,,18660,19032613,,,,,
116113299,Germany vs Scotland (2024-06-14),Goal,27:00.0,Scotland,Antonio R√ºdiger,Scott McKenna,1-Apr,87,0,,,,31837,173047,18706,19032613,,,,,
116113030,Germany vs Scotland (2024-06-14),Yellowcard,02:00.0,Germany,Jonathan Tah,,,62,0,,,,31836,,18660,19032613,,,,,
116113186,Germany vs Scotland (2024-06-14),VAR,16:00.0,Germany,Niclas F√ºllkrug,,,76,0,Goal,08:00.0,480,31532,,18660,19032613,,,,,
116113089,Germany vs Scotland (2024-06-14),Goal,08:00.0,Germany,Niclas F√ºllkrug,,Apr-00,68,0,Substitution,03:00.0,300,31532,,18660,19032613,,,,,
116113033,Germany vs Scotland (2024-06-14),Substitution,03:00.0,Germany,Niclas F√ºllkrug,Kai Havertz,,63,0,VAR,25:00.0,2280,31532,32612,18660,19032613,,,,,
116112753,Germany vs Scotland (2024-06-14),VAR,25:00.0,Germany,Niclas F√ºllkrug,,,25,0,,,,31532,,18660,19032613,,,,,
116112974,Germany vs Scotland (2024-06-14),Substitution,46:00.0,Germany,Pascal Gro√ü,Robert Andrich,,46,0,,,,31504,34880,18660,19032613,,,,,
116113138,Germany vs Scotland (2024-06-14),Substitution,14:00.0,Germany,Thomas M√ºller,Jamal Musiala,,74,0,,,,30286,33186829,18660,19032613,,,,,
116112863,Germany vs Scotland (2024-06-14),VAR,16:00.0,Germany,ƒ∞lkay G√ºndoƒüan¬†,,,76,0,,,,4842,,18660,19032613,,,,,
116113047,Germany vs Scotland (2024-06-14),Substitution,03:00.0,Germany,Leroy San√©,Florian Wirtz,,63,0,,,,4783,37429246,18660,19032613,,,,,
116113361,Germany vs Scotland (2024-06-14),Goal,33:00.0,Germany,Emre Can,Thomas M√ºller,1-May,90,3,Substitution,20:00.0,780,1388,30286,18660,19032613,,,,,
116113232,Germany vs Scotland (2024-06-14),Substitution,20:00.0,Germany,Emre Can,Toni Kroos,,80,0,,,,1388,30289,18660,19032613,,,,,
116112973,Germany vs Scotland (2024-06-14),Substitution,46:00.0,Scotland,Grant Hanley,Ch√© Adams,,46,0,,,,807,3596,18706,19032613,,,,,
116314449,Belgium vs Romania (2024-06-22),Substitution,17:00.0,Belgium,Zeno Debast,Arthur Theate,,77,0,,,,37459060,25922235,18743,19032637,,,,,
116314383,Belgium vs Romania (2024-06-22),Substitution,12:00.0,Belgium,Orel Mangala,Youri Tielemans,,72,0,,,,523939,62342,18743,19032637,,,,,
116314305,Belgium vs Romania (2024-06-22),Substitution,08:00.0,Romania,Darius Olaru,Marius Marin,,68,0,,,,165910,133835,18638,19032637,,,,,
116314720,Belgium vs Romania (2024-06-22),Substitution,30:00.0,Romania,Deian Sorescu,Andrei Ra»õiu,,90,0,,,,165701,9308118,18638,19032637,,,,,
116314163,Belgium vs Romania (2024-06-22),Yellowcard,59:00.0,Romania,Nicu»ôor Bancu,,,59,0,,,,165093,,18638,19032637,,,,,
116314270,Belgium vs Romania (2024-06-22),Yellowcard,05:00.0,Romania,Marius Marin,,,65,0,,,,133835,,18638,19032637,,,,,
116314304,Belgium vs Romania (2024-06-22),Substitution,08:00.0,Romania,Ianis Hagi,Valentin MihƒÉilƒÉ,,68,0,,,,129857,6013442,18638,19032637,,,,,
116314379,Belgium vs Romania (2024-06-22),Substitution,12:00.0,Belgium,Yannick Carrasco,J√©r√©my Doku,,72,0,,,,96092,23697990,18743,19032637,,,,,
116313041,Belgium vs Romania (2024-06-22),Yellowcard,35:00.0,Belgium,Dodi Luk√©bakio,,,35,0,,,,62871,,18743,19032637,,,,,
116312484,Belgium vs Romania (2024-06-22),Goal,02:00.0,Belgium,Youri Tielemans,Romelu Lukaku,Jan-00,2,0,,,,62342,995,18743,19032637,,,,,
116314529,Belgium vs Romania (2024-06-22),Substitution,21:00.0,Romania,Denis Alibec,Denis DrƒÉgu»ô,,81,0,,,,62024,165648,18638,19032637,,,,,
116314122,Belgium vs Romania (2024-06-22),Substitution,56:00.0,Belgium,Leandro Trossard,Dodi Luk√©bakio,,56,0,,,,61780,62871,18743,19032637,,,,,
116314486,Belgium vs Romania (2024-06-22),Goal,20:00.0,Belgium,Kevin De Bruyne,Koen Casteels,Feb-00,80,0,,,,1371,31551,18743,19032637,,,,,
116314256,Belgium vs Romania (2024-06-22),VAR,03:00.0,Belgium,Romelu Lukaku,,,63,0,,,,995,,18743,19032637,,,,,
116475660,Switzerland vs Italy (2024-06-29),Substitution,14:00.0,Italy,Andrea Cambiaso,M. Darmian,,74,0,,,,37260234,933,18658,19032606,,,,,
116475498,Switzerland vs Italy (2024-06-29),Substitution,11:00.0,Switzerland,Leonidas Stergiou,Rub√©n Vargas,,71,0,,,,24817462,1478864,18708,19032606,,,,,
116475155,Switzerland vs Italy (2024-06-29),Substitution,04:00.0,Italy,Mateo Retegui,N. Barella,,64,0,,,,9302266,130117,18658,19032606,,,,,
116474771,Switzerland vs Italy (2024-06-29),Goal,46:00.0,Switzerland,Rub√©n Vargas,Michel Aebischer,Feb-00,46,0,,,,1478864,198220,18708,19032606,,,,,
116475797,Switzerland vs Italy (2024-06-29),Substitution,17:00.0,Switzerland,Kwadwo Duah,Breel Embolo,,77,0,,,,198111,32538,18708,19032606,,,,,
116475859,Switzerland vs Italy (2024-06-29),Substitution,17:00.0,Switzerland,Vincent Sierro,Dan Ndoye,,77,0,,,,198045,19978623,18708,19032606,,,,,
116476264,Switzerland vs Italy (2024-06-29),Substitution,32:00.0,Switzerland,Renato Steffen,Michel Aebischer,,90,2,,,,197807,198220,18708,19032606,,,,,
116476096,Switzerland vs Italy (2024-06-29),Substitution,26:00.0,Italy,Davide Frattesi,N. Fagioli,,86,0,,,,134015,4536538,18658,19032606,,,,,
116474973,Switzerland vs Italy (2024-06-29),Yellowcard,57:00.0,Italy,Gianluca Mancini,,,57,0,,,,132259,,18658,19032606,,,,,
116468906,Switzerland vs Italy (2024-06-29),Goal,37:00.0,Switzerland,Remo Freuler,Rub√©n Vargas,Jan-00,37,0,,,,130145,1478864,18708,19032606,,,,,
116468771,Switzerland vs Italy (2024-06-29),Yellowcard,35:00.0,Italy,Nicol√≤ Barella,,,35,0,,,,130117,,18658,19032606,,,,,
116475661,Switzerland vs Italy (2024-06-29),Substitution,14:00.0,Italy,Lorenzo Pellegrini,Bryan Cristante,,74,0,,,,129946,129467,18658,19032606,,,,,
116474756,Switzerland vs Italy (2024-06-29),Substitution,46:00.0,Italy,Mattia Zaccagni,Stephan El Shaarawy,,46,0,,,,129677,96514,18658,19032606,,,,,
116469408,Switzerland vs Italy (2024-06-29),Yellowcard,45:00.0,Italy,Stephan El Shaarawy,,,45,0,,,,96514,,18658,19032606,,,,,
116475497,Switzerland vs Italy (2024-06-29),Substitution,11:00.0,Switzerland,Steven Zuber,Fabian Rieder,,71,0,,,,32116,24817439,18708,19032606,,,,,
116216088,Belgium vs Slovakia (2024-06-17),Substitution,57:00.0,Belgium,Johan Bakayoko,Orel Mangala,,57,0,,,,37400407,523939,18743,19032634,,,,,
116217387,Belgium vs Slovakia (2024-06-17),Substitution,34:00.0,Slovakia,Adam Obert,Ondrej Duda,,90,4,,,,24816773,33793,18648,19032634,,,,,
116216300,Belgium vs Slovakia (2024-06-17),Substitution,10:00.0,Slovakia,Tomas Suslov,Lukas Haraslin,,70,0,,,,24816762,133633,18648,19032634,,,,,
116216299,Belgium vs Slovakia (2024-06-17),Substitution,10:00.0,Slovakia,David Strelec,Robert Bozenik,,70,0,,,,9939024,182277,18648,19032634,,,,,
116216694,Belgium vs Slovakia (2024-06-17),Substitution,21:00.0,Slovakia,David Duris,Ivan Schranz,,81,0,,,,4243098,81501,18648,19032634,,,,,
116216861,Belgium vs Slovakia (2024-06-17),Substitution,24:00.0,Belgium,Lo√Øs Openda,J√©r√©my Doku,,84,0,,,,539993,23697990,18743,19032634,,,,,
116213987,Belgium vs Slovakia (2024-06-17),Yellowcard,29:00.0,Belgium,Orel Mangala,,,29,0,,,,523939,,18743,19032634,,,,,
116214091,Belgium vs Slovakia (2024-06-17),Yellowcard,41:00.0,Slovakia,Ivan Schranz,,,41,0,Goal,07:00.0,2040,81501,,18648,19032634,,,,,
116213868,Belgium vs Slovakia (2024-06-17),Goal,07:00.0,Slovakia,Ivan Schranz,Juraj Kucka,0-1,7,0,,,,81501,79268,18648,19032634,,,,,
116216862,Belgium vs Slovakia (2024-06-17),Yellowcard,25:00.0,Belgium,Dodi Luk√©bakio,,,85,0,Substitution,24:00.0,60,62871,,18743,19032634,,,,,
116216807,Belgium vs Slovakia (2024-06-17),Substitution,24:00.0,Belgium,Dodi Luk√©bakio,Yannick Carrasco,,84,0,,,,62871,96092,18743,19032634,,,,,
116216460,Belgium vs Slovakia (2024-06-17),Yellowcard,16:00.0,Belgium,Youri Tielemans,,,76,0,Substitution,14:00.0,120,62342,,18743,19032634,,,,,
116216428,Belgium vs Slovakia (2024-06-17),Substitution,14:00.0,Belgium,Youri Tielemans,Leandro Trossard,,74,0,,,,62342,61780,18743,19032634,,,,,
116217057,Belgium vs Slovakia (2024-06-17),VAR,26:00.0,Belgium,Romelu Lukaku,,,86,0,VAR,56:00.0,1800,995,,18743,19032634,,,,,
116216078,Belgium vs Slovakia (2024-06-17),VAR,56:00.0,Belgium,Romelu Lukaku,,,56,0,,,,995,,18743,19032634,,,,,
116392788,England vs Slovenia (2024-06-25),Substitution,46:00.0,England,Kobbie Mainoo,Conor Gallagher,,46,0,,,,37540234,1494245,18645,19032626,,,,,
116392917,England vs Slovenia (2024-06-25),Substitution,11:00.0,England,Cole Palmer,Bukayo Saka,,71,0,,,,28912747,16827155,18645,19032626,,,,,
116393005,England vs Slovenia (2024-06-25),Substitution,29:00.0,England,Anthony Gordon,Phil Foden,,89,0,,,,9611543,336133,18645,19032626,,,,,
116392909,England vs Slovenia (2024-06-25),Yellowcard,08:00.0,England,Marc Gu√©hi,,,68,0,,,,4536500,,18645,19032626,,,,,
116392923,England vs Slovenia (2024-06-25),Yellowcard,12:00.0,Slovenia,Jaka Bijol,,,72,0,,,,1548632,,18630,19032626,,,,,
116392980,England vs Slovenia (2024-06-25),Substitution,26:00.0,Slovenia,Zan Celar,A. ≈†porar,,86,0,,,,459196,182905,18630,19032626,,,,,
116392936,England vs Slovenia (2024-06-25),Yellowcard,17:00.0,England,Phil Foden,,,77,0,,,,336133,,18645,19032626,,,,,
116393014,England vs Slovenia (2024-06-25),Substitution,31:00.0,Slovenia,Jure Balkovec,E. Jan≈æa,,90,1,,,,183013,81827,18630,19032626,,,,,
116392930,England vs Slovenia (2024-06-25),Substitution,15:00.0,Slovenia,Josip Ilicic,B. ≈†e≈°ko,,75,0,,,,128899,24818280,18630,19032626,,,,,
116392448,England vs Slovenia (2024-06-25),Yellowcard,22:00.0,Slovenia,Erik Janza,,,22,0,,,,81827,,18630,19032626,,,,,
116392984,England vs Slovenia (2024-06-25),Substitution,26:00.0,Slovenia,Jon Gorenc Stankovic,J. Mlakar,,86,0,,,,3339,133994,18630,19032626,,,,,
116392972,England vs Slovenia (2024-06-25),Substitution,24:00.0,England,Trent Alexander-Arnold,Kieran Trippier,,84,0,,,,1917,1016,18645,19032626,,,,,
116392410,England vs Slovenia (2024-06-25),Yellowcard,17:00.0,England,Kieran Trippier,,,17,0,,,,1016,,18645,19032626,,,,,
116554003,Romania vs Netherlands (2024-07-02),Substitution,09:00.0,Netherlands,Micky van de Ven,Nathan Ak√©,,69,0,,,,37296248,1869,18694,19032611,,,,,
116550634,Romania vs Netherlands (2024-07-02),Substitution,38:00.0,Romania,Bogdan Racovi»õan,Vasile Mogo»ô,,38,0,,,,31616427,133170,18638,19032611,,,,,
116554038,Romania vs Netherlands (2024-07-02),Substitution,12:00.0,Romania,Valentin MihƒÉilƒÉ,Denis DrƒÉgu»ô,,72,0,,,,6013442,165648,18638,19032611,,,,,
116554287,Romania vs Netherlands (2024-07-02),Yellowcard,34:00.0,Netherlands,Donyell Malen,,,90,4,Goal,33:00.0,60,537758,,18694,19032611,,,,,
116554274,Romania vs Netherlands (2024-07-02),Goal,33:00.0,Netherlands,Donyell Malen,Xavi Simons,0-3,90,3,Goal,23:00.0,600,537758,37317392,18694,19032611,,,,,
116554151,Romania vs Netherlands (2024-07-02),Goal,23:00.0,Netherlands,Donyell Malen,Cody Gakpo,0-2,83,0,Substitution,46:00.0,2220,537758,30062,18694,19032611,,,,,
116553762,Romania vs Netherlands (2024-07-02),Substitution,46:00.0,Netherlands,Donyell Malen,Steven Bergwijn,,46,0,,,,537758,25776,18694,19032611,,,,,
116554241,Romania vs Netherlands (2024-07-02),Substitution,28:00.0,Romania,Darius Olaru,Nicolae Stanciu,,88,0,,,,165910,62905,18638,19032611,,,,,
116554037,Romania vs Netherlands (2024-07-02),Substitution,12:00.0,Romania,Alexandru Cic√¢ldƒÉu,Marius Marin,,72,0,,,,165458,133835,18638,19032611,,,,,
116553973,Romania vs Netherlands (2024-07-02),Yellowcard,07:00.0,Romania,Marius Marin,,,67,0,,,,133835,,18638,19032611,,,,,
116554134,Romania vs Netherlands (2024-07-02),Yellowcard,21:00.0,Romania,Nicolae Stanciu,,,81,0,,,,62905,,18638,19032611,,,,,
116554036,Romania vs Netherlands (2024-07-02),Substitution,12:00.0,Romania,Denis Alibec,Ianis Hagi,,72,0,,,,62024,129857,18638,19032611,,,,,
116553921,Romania vs Netherlands (2024-07-02),VAR,03:00.0,Netherlands,Cody Gakpo,,,63,0,Goal,20:00.0,2580,30062,,18694,19032611,,,,,
116550527,Romania vs Netherlands (2024-07-02),Goal,20:00.0,Netherlands,Cody Gakpo,Xavi Simons,0-1,20,0,,,,30062,37317392,18694,19032611,,,,,
116553993,Romania vs Netherlands (2024-07-02),Substitution,09:00.0,Netherlands,Joey Veerman,Jerdy Schouten,,69,0,,,,29394,26786,18694,19032611,,,,,
116554100,Romania vs Netherlands (2024-07-02),Yellowcard,18:00.0,Netherlands,Denzel Dumfries,,,78,0,,,,26027,,18694,19032611,,,,,
116554198,Romania vs Netherlands (2024-07-02),Substitution,24:00.0,Netherlands,Wout Weghorst,Cody Gakpo,,84,0,,,,25317,30062,18694,19032611,,,,,
116554264,Romania vs Netherlands (2024-07-02),Substitution,32:00.0,Netherlands,Daley Blind,Memphis Depay,,90,2,,,,970,929,18694,19032611,,,,,
116144202,Spain vs Croatia (2024-06-15),Substitution,05:00.0,Croatia,Luka Sucic,Mateo Kovacic,,65,0,,,,22528446,73147,18588,19032616,,,,,
116144619,Spain vs Croatia (2024-06-15),Substitution,26:00.0,Spain,Mart√≠n Zubimendi,Rodri,,86,0,,,,530762,186910,18710,19032616,,,,,
116144618,Spain vs Croatia (2024-06-15),Substitution,26:00.0,Spain,Ferran Torres,Lamine Yamal,,86,0,,,,448389,37656179,18710,19032616,,,,,
116144232,Spain vs Croatia (2024-06-15),Substitution,08:00.0,Spain,Mikel Oyarzabal,Nico Williams,,68,0,,,,186932,37297544,18710,19032616,,,,,
116144420,Spain vs Croatia (2024-06-15),Yellowcard,18:00.0,Spain,Rodri,,,78,0,,,,186910,,18710,19032616,,,,,
116138363,Spain vs Croatia (2024-06-15),Goal,32:00.0,Spain,Fabi√°n Ruiz,Pedri,Feb-00,32,0,,,,186735,37288001,18710,19032616,,,,,
116144491,Spain vs Croatia (2024-06-15),VAR,20:00.0,Croatia,Bruno Petkovic,,,80,0,Missed Penalty,20:00.0,0,131838,,18588,19032616,,,,,
116144436,Spain vs Croatia (2024-06-15),Missed Penalty,20:00.0,Croatia,Bruno Petkovic,Bruno Petkovic,,80,0,Substitution,12:00.0,480,131838,131838,18588,19032616,,,,,
116144317,Spain vs Croatia (2024-06-15),Substitution,12:00.0,Croatia,Bruno Petkovic,Andrej Kramaric,,72,0,,,,131838,1232,18588,19032616,,,,,
116138294,Spain vs Croatia (2024-06-15),Goal,29:00.0,Spain,√Ålvaro Morata,Fabi√°n Ruiz,Jan-00,29,0,,,,129660,186735,18710,19032616,,,,,
116144107,Spain vs Croatia (2024-06-15),Substitution,59:00.0,Spain,Dani Olmo,Pedri,,59,0,,,,74060,37288001,18710,19032616,,,,,
116144178,Spain vs Croatia (2024-06-15),Substitution,05:00.0,Croatia,Mario Pasalic,Luka Modric,,65,0,,,,73603,268,18588,19032616,,,,,
116144231,Spain vs Croatia (2024-06-15),Substitution,07:00.0,Spain,Mikel Merino,√Ålvaro Morata,,67,0,,,,32710,129660,18710,19032616,,,,,
116138848,Spain vs Croatia (2024-06-15),Goal,47:00.0,Spain,Daniel Carvajal,Lamine Yamal,Mar-00,45,2,,,,31647,37656179,18710,19032616,,,,,
116144021,Spain vs Croatia (2024-06-15),Substitution,56:00.0,Croatia,Ivan Perisic,Ante Budimir,,56,0,,,,31002,34700,18588,19032616,,,,,
116353451,Switzerland vs Germany (2024-06-23),Substitution,05:00.0,Switzerland,Zeki Amdouni,Dan Ndoye,,65,0,,,,37261110,19978623,18708,19032615,,,,,
116353454,Switzerland vs Germany (2024-06-23),Substitution,05:00.0,Germany,Maximilian Beier,Robert Andrich,,65,0,,,,23277923,34880,18660,19032615,,,,,
116351609,Switzerland vs Germany (2024-06-23),Goal,28:00.0,Switzerland,Dan Ndoye,Remo Freuler,Jan-00,28,0,Yellowcard,25:00.0,180,19978623,130145,18708,19032615,,,,,
116351510,Switzerland vs Germany (2024-06-23),Yellowcard,25:00.0,Switzerland,Dan Ndoye,,,25,0,,,,19978623,,18708,19032615,,,,,
116353309,Switzerland vs Germany (2024-06-23),Substitution,01:00.0,Germany,Nico Schlotterbeck,Jonathan Tah,,61,0,,,,3862352,31836,18660,19032615,,,,,
116353483,Switzerland vs Germany (2024-06-23),Substitution,05:00.0,Switzerland,Rub√©n Vargas,Fabian Rieder,,65,0,,,,1478864,24817439,18708,19032615,,,,,
116353457,Switzerland vs Germany (2024-06-23),Substitution,05:00.0,Switzerland,Kwadwo Duah,Breel Embolo,,65,0,,,,198111,32538,18708,19032615,,,,,
116354059,Switzerland vs Germany (2024-06-23),Yellowcard,21:00.0,Switzerland,Silvan Widmer,,,81,0,,,,129609,,18708,19032615,,,,,
116353308,Switzerland vs Germany (2024-06-23),Substitution,01:00.0,Germany,David Raum,Maximilian Mittelst√§dt,,61,0,,,,36119,32384,18660,19032615,,,,,
116351310,Switzerland vs Germany (2024-06-23),VAR,17:00.0,Germany,Robert Andrich,,,17,0,,,,34880,,18660,19032615,,,,,
116351883,Switzerland vs Germany (2024-06-23),Yellowcard,38:00.0,Germany,Jonathan Tah,,,38,0,,,,31836,,18660,19032615,,,,,
116354642,Switzerland vs Germany (2024-06-23),Goal,32:00.0,Germany,Niclas F√ºllkrug,David Raum,1-Jan,90,2,Substitution,16:00.0,960,31532,36119,18660,19032615,,,,,
116353837,Switzerland vs Germany (2024-06-23),Substitution,16:00.0,Germany,Niclas F√ºllkrug,Jamal Musiala,,76,0,,,,31532,33186829,18660,19032615,,,,,
116353856,Switzerland vs Germany (2024-06-23),Substitution,16:00.0,Germany,Leroy San√©,Florian Wirtz,,76,0,,,,4783,37429246,18660,19032615,,,,,
116353504,Switzerland vs Germany (2024-06-23),Yellowcard,07:00.0,Switzerland,Granit Xhaka,,,67,0,,,,1887,,18708,19032615,,,,,
116411551,Georgia vs Portugal (2024-06-26),Yellowcard,25:00.0,Georgia,Anzor Mekvabishvili,,,85,0,Substitution,21:00.0,240,25922119,,18692,19032645,,,,,
116411505,Georgia vs Portugal (2024-06-26),Substitution,21:00.0,Georgia,Anzor Mekvabishvili,K. Kvaratskhelia,,81,0,,,,25922119,1479337,18692,19032645,,,,,
116411319,Georgia vs Portugal (2024-06-26),Substitution,06:00.0,Portugal,Gon√ßalo Ramos,Cristiano Ronaldo,,66,0,,,,23278610,580,18701,19032645,,,,,
116411387,Georgia vs Portugal (2024-06-26),Substitution,15:00.0,Portugal,Matheus Nunes,Jo√£o Neves,,75,0,,,,21781428,37592729,18701,19032645,,,,,
116411261,Georgia vs Portugal (2024-06-26),Goal,57:00.0,Georgia,Georges Mikautadze,,Feb-00,57,0,,,,13963088,,18692,19032645,,,,,
116410601,Georgia vs Portugal (2024-06-26),Goal,02:00.0,Georgia,Khvicha Kvaratskhelia,G. Mikautadze,Jan-00,2,0,,,,1479337,13963088,18692,19032645,,,,,
116411495,Georgia vs Portugal (2024-06-26),Substitution,21:00.0,Georgia,Zuriko Davitashvili,G. Chakvetadze,,81,0,,,,539555,106821,18692,19032645,,,,,
116411303,Georgia vs Portugal (2024-06-26),Substitution,03:00.0,Georgia,Georgiy Tsitaishvili,L. Lochoshvili,,63,0,,,,537257,104100,18692,19032645,,,,,
116411011,Georgia vs Portugal (2024-06-26),Yellowcard,44:00.0,Portugal,Pedro Neto,,,44,0,,,,496775,,18701,19032645,,,,,
116411400,Georgia vs Portugal (2024-06-26),Substitution,16:00.0,Georgia,Solomon Kvirkvelia,G. Gvelesiani,,76,0,,,,169788,103247,18692,19032645,,,,,
116411322,Georgia vs Portugal (2024-06-26),Substitution,06:00.0,Portugal,N√©lson Semedo,Ant√≥nio Silva,,66,0,,,,160110,37354828,18701,19032645,,,,,
116411382,Georgia vs Portugal (2024-06-26),Substitution,15:00.0,Portugal,Diogo Jota,Pedro Neto,,75,0,,,,159917,496775,18701,19032645,,,,,
116411238,Georgia vs Portugal (2024-06-26),Yellowcard,53:00.0,Portugal,R√∫ben Neves,,,53,0,Substitution,46:00.0,420,159699,,18701,19032645,,,,,
116411194,Georgia vs Portugal (2024-06-26),Substitution,46:00.0,Portugal,R√∫ben Neves,Jo√£o Palhinha,,46,0,,,,159699,160072,18701,19032645,,,,,
116411258,Georgia vs Portugal (2024-06-26),VAR,55:00.0,Georgia,Luka Lochoshvili,,,55,0,,,,104100,,18692,19032645,,,,,
116410863,Georgia vs Portugal (2024-06-26),Yellowcard,28:00.0,Portugal,Cristiano Ronaldo,,,28,0,,,,580,,18701,19032645,,,,,
116270735,Denmark vs England (2024-06-20),Substitution,57:00.0,Denmark,Mikkel Damsgaard,Jonas Wind,,57,0,,,,8449373,537914,18583,19032624,,,,,
116271193,Denmark vs England (2024-06-20),Substitution,22:00.0,Denmark,Andreas Skov Olsen,Morten Hjulmand,,82,0,,,,1685328,540189,18583,19032624,,,,,
116270816,Denmark vs England (2024-06-20),Yellowcard,01:00.0,England,C. Gallagher,,,61,0,Substitution,54:00.0,420,1494245,,18645,19032624,,,,,
116270693,Denmark vs England (2024-06-20),Substitution,54:00.0,England,C. Gallagher,Trent Alexander-Arnold,,54,0,,,,1494245,1917,18645,19032624,,,,,
116269890,Denmark vs England (2024-06-20),Goal,34:00.0,Denmark,Morten Hjulmand,Victor Kristiansen,1-Jan,34,0,,,,540189,32796825,18583,19032624,,,,,
116270736,Denmark vs England (2024-06-20),Substitution,57:00.0,Denmark,Alexander Bah,Victor Kristiansen,,57,0,,,,85996,32796825,18583,19032624,,,,,
116270978,Denmark vs England (2024-06-20),Yellowcard,13:00.0,Denmark,Joakim Maehle,,,73,0,,,,84604,,18583,19032624,,,,,
116270873,Denmark vs England (2024-06-20),Substitution,07:00.0,Denmark,Yussuf Poulsen,Rasmus H√∏jlund,,67,0,,,,32587,37325012,18583,19032624,,,,,
116271322,Denmark vs England (2024-06-20),Yellowcard,27:00.0,Denmark,Christian N√∏rgaard,,,87,0,Substitution,22:00.0,300,31609,,18583,19032624,,,,,
116271190,Denmark vs England (2024-06-20),Substitution,22:00.0,Denmark,Christian N√∏rgaard,Christian Eriksen,,82,0,,,,31609,992,18583,19032624,,,,,
116269824,Denmark vs England (2024-06-20),Yellowcard,27:00.0,Denmark,Jannik Vestergaard,,,27,0,,,,31129,,18583,19032624,,,,,
116270910,Denmark vs England (2024-06-20),Substitution,09:00.0,England,Ollie Watkins,Bukayo Saka,,69,0,,,,12145,16827155,18645,19032624,,,,,
116270909,Denmark vs England (2024-06-20),Substitution,09:00.0,England,Eberechi Eze,Harry Kane,,69,0,,,,7643,997,18645,19032624,,,,,
116270903,Denmark vs England (2024-06-20),Substitution,09:00.0,England,Jarrod Bowen,Phil Foden,,69,0,,,,1592,336133,18645,19032624,,,,,
116269757,Denmark vs England (2024-06-20),Goal,18:00.0,England,Harry Kane,,0-1,18,0,,,,997,,18645,19032624,,,,,
116408900,Slovakia vs Romania (2024-06-26),Yellowcard,55:00.0,Romania,Edward IordƒÉnescu,,,55,0,,,,,,18638,19032638,,,,,
116409165,Slovakia vs Romania (2024-06-26),Substitution,10:00.0,Slovakia,Tomas Suslov,L. Harasl√≠n,,70,0,,,,24816762,133633,18648,19032638,,,,,
116409446,Slovakia vs Romania (2024-06-26),Substitution,18:00.0,Slovakia,David Duris,I. Schranz,,78,0,,,,4243098,81501,18648,19032638,,,,,
116409157,Slovakia vs Romania (2024-06-26),Substitution,10:00.0,Slovakia,Robert Bozenik,D. Strelec,,70,0,,,,182277,9939024,18648,19032638,,,,,
116409712,Slovakia vs Romania (2024-06-26),Substitution,32:00.0,Slovakia,Matus Bero,O. Duda,,90,2,,,,180916,33793,18648,19032638,,,,,
116406572,Slovakia vs Romania (2024-06-26),Yellowcard,46:00.0,Romania,Andrei BurcƒÉ,,,45,1,,,,165777,,18638,19032638,,,,,
116408933,Slovakia vs Romania (2024-06-26),Substitution,58:00.0,Romania,Deian Sorescu,Florinel Coman,,58,0,,,,165701,165479,18638,19032638,,,,,
116409093,Slovakia vs Romania (2024-06-26),Substitution,06:00.0,Romania,Dennis Man,Ianis Hagi,,66,0,,,,165622,129857,18638,19032638,,,,,
116406637,Slovakia vs Romania (2024-06-26),Yellowcard,49:00.0,Romania,Nicu»ôor Bancu,,,45,4,,,,165093,,18638,19032638,,,,,
116409626,Slovakia vs Romania (2024-06-26),Yellowcard,28:00.0,Romania,George Pu»ôca»ô,,,88,0,Substitution,06:00.0,1320,130192,,18638,19032638,,,,,
116409098,Slovakia vs Romania (2024-06-26),Substitution,06:00.0,Romania,George Pu»ôca»ô,Denis DrƒÉgu»ô,,66,0,,,,130192,165648,18638,19032638,,,,,
116406429,Slovakia vs Romania (2024-06-26),VAR,36:00.0,Romania,Ianis Hagi,,,36,0,,,,129857,,18638,19032638,,,,,
116409717,Slovakia vs Romania (2024-06-26),Substitution,32:00.0,Slovakia,Norbert Gyomber,P. Pekar√≠k,,90,2,,,,129686,30844,18648,19032638,,,,,
116409599,Slovakia vs Romania (2024-06-26),Substitution,26:00.0,Romania,Adrian Rus,RƒÉzvan Marin,,86,0,,,,116888,64202,18638,19032638,,,,,
116406418,Slovakia vs Romania (2024-06-26),Goal,37:00.0,Romania,RƒÉzvan Marin,,1-Jan,37,0,,,,64202,,18638,19032638,,,,,
116430982,Slovakia vs Romania (2024-06-26),Yellowcard,31:00.0,Slovakia,O. Duda,,,90,1,Yellowcard,31:00.0,0,33793,,18648,19032638,,,,,
116409748,Slovakia vs Romania (2024-06-26),Yellowcard,31:00.0,Slovakia,Ondrej Duda,,,90,1,Goal,24:00.0,4020,33793,,18648,19032638,,,,,
116406259,Slovakia vs Romania (2024-06-26),Goal,24:00.0,Slovakia,Ondrej Duda,J. Kucka,Jan-00,24,0,,,,33793,79268,18648,19032638,,,,,
116248388,Germany vs Hungary (2024-06-19),Yellowcard,33:00.0,Hungary,Marco Rossi,,,90,3,,,,,,18732,19032614,,,,,
116245126,Germany vs Hungary (2024-06-19),Goal,22:00.0,Germany,Jamal Musiala,ƒ∞lkay G√ºndoƒüan,Jan-00,22,0,,,,33186829,4842,18660,19032614,,,,,
116248164,Germany vs Hungary (2024-06-19),Substitution,27:00.0,Hungary,Kevin Csoboth,Roland Sallai,,87,0,,,,11705271,114021,18732,19032614,,,,,
116247669,Germany vs Hungary (2024-06-19),Substitution,12:00.0,Germany,Chris F√ºhrich,Jamal Musiala,,72,0,,,,2158512,33186829,18660,19032614,,,,,
116248356,Germany vs Hungary (2024-06-19),Yellowcard,33:00.0,Hungary,D. Szoboszlai,,,90,3,,,,785998,,18732,19032614,,,,,
116248165,Germany vs Hungary (2024-06-19),Substitution,27:00.0,Hungary,D√°niel Gazdag,Barnab√°s Varga,,87,0,,,,114179,52903,18732,19032614,,,,,
116247783,Germany vs Hungary (2024-06-19),Substitution,15:00.0,Hungary,Martin √Åd√°m,Milos Kerkez,,75,0,,,,114118,37381778,18732,19032614,,,,,
116247784,Germany vs Hungary (2024-06-19),Substitution,15:00.0,Hungary,Zsolt Nagy,Bendeg√∫z Bolla,,75,0,,,,114032,3169774,18732,19032614,,,,,
116246970,Germany vs Hungary (2024-06-19),VAR,47:00.0,Hungary,Roland Sallai,,,45,2,,,,114021,,18732,19032614,,,,,
116245166,Germany vs Hungary (2024-06-19),Yellowcard,22:00.0,Hungary,Barnab√°s Varga,,,22,0,,,,52903,,18732,19032614,,,,,
116248107,Germany vs Hungary (2024-06-19),Substitution,24:00.0,Germany,Deniz Undav,ƒ∞lkay G√ºndoƒüan,,84,0,,,,41077,4842,18660,19032614,,,,,
116247524,Germany vs Hungary (2024-06-19),Substitution,04:00.0,Hungary,L. Kleinheisler,√Åd√°m Nagy,,64,0,,,,32460,114226,18732,19032614,,,,,
116248239,Germany vs Hungary (2024-06-19),Yellowcard,29:00.0,Germany,Maximilian Mittelst√§dt,,,89,0,,,,32384,,18660,19032614,,,,,
116245200,Germany vs Hungary (2024-06-19),Yellowcard,27:00.0,Germany,Antonio R√ºdiger,,,27,0,,,,31837,,18660,19032614,,,,,
116247431,Germany vs Hungary (2024-06-19),Substitution,58:00.0,Germany,Niclas F√ºllkrug,Kai Havertz,,58,0,,,,31532,32612,18660,19032614,,,,,
116247566,Germany vs Hungary (2024-06-19),Goal,07:00.0,Germany,ƒ∞lkay G√ºndoƒüan,Maximilian Mittelst√§dt,Feb-00,67,0,,,,4842,32384,18660,19032614,,,,,
116247432,Germany vs Hungary (2024-06-19),Substitution,58:00.0,Germany,Leroy San√©,Florian Wirtz,,58,0,,,,4783,37429246,18660,19032614,,,,,
116247664,Germany vs Hungary (2024-06-19),Substitution,12:00.0,Germany,Emre Can,Robert Andrich,,72,0,,,,1388,34880,18660,19032614,,,,,
116136025,Hungary vs Switzerland (2024-06-15),Yellowcard,28:00.0,Switzerland,Murat Yakin,,,88,0,,,,,,18708,19045701,,,,,
116135291,Hungary vs Switzerland (2024-06-15),Substitution,08:00.0,Switzerland,Zeki Amdouni,Kwadwo Duah,,68,0,,,,37261110,198111,18708,19045701,,,,,
116135302,Hungary vs Switzerland (2024-06-15),Substitution,08:00.0,Switzerland,Leonidas Stergiou,Silvan Widmer,,68,0,,,,24817462,129609,18708,19045701,,,,,
116135987,Hungary vs Switzerland (2024-06-15),Substitution,26:00.0,Switzerland,Fabian Rieder,Dan Ndoye,,86,0,,,,24817439,19978623,18708,19045701,,,,,
116135717,Hungary vs Switzerland (2024-06-15),Substitution,19:00.0,Hungary,M√°rton D√°rdai,Milos Kerkez,,79,0,,,,23707369,37381778,18732,19045701,,,,,
116136026,Hungary vs Switzerland (2024-06-15),Yellowcard,28:00.0,Hungary,Bendeg√∫z Bolla,,,88,0,Substitution,46:00.0,2520,3169774,,18732,19045701,,,,,
116134669,Hungary vs Switzerland (2024-06-15),Substitution,46:00.0,Hungary,Bendeg√∫z Bolla,√Åd√°m Lang,,46,0,,,,3169774,96929,18732,19045701,,,,,
116134051,Hungary vs Switzerland (2024-06-15),Goal,45:00.0,Switzerland,Michel Aebischer,Remo Freuler,0-2,45,0,,,,198220,130145,18708,19045701,,,,,
116132485,Hungary vs Switzerland (2024-06-15),VAR,13:00.0,Switzerland,Kwadwo Duah,,,13,0,Goal,12:00.0,60,198111,,18708,19045701,,,,,
116132459,Hungary vs Switzerland (2024-06-15),Goal,12:00.0,Switzerland,Kwadwo Duah,Michel Aebischer,0-1,12,0,,,,198111,198220,18708,19045701,,,,,
116135986,Hungary vs Switzerland (2024-06-15),Substitution,26:00.0,Switzerland,Vincent Sierro,Remo Freuler,,86,0,,,,198045,130145,18708,19045701,,,,,
116135033,Hungary vs Switzerland (2024-06-15),Yellowcard,59:00.0,Switzerland,Remo Freuler,,,59,0,,,,130145,,18708,19045701,,,,,
116132091,Hungary vs Switzerland (2024-06-15),Yellowcard,05:00.0,Switzerland,Silvan Widmer,,,5,0,,,,129609,,18708,19045701,,,,,
116135716,Hungary vs Switzerland (2024-06-15),Substitution,19:00.0,Hungary,Martin √Åd√°m,Attila Szalai,,79,0,,,,114118,53557,18732,19045701,,,,,
116135332,Hungary vs Switzerland (2024-06-15),Yellowcard,09:00.0,Hungary,Attila Szalai,,,69,0,,,,53557,,18732,19045701,,,,,
116135210,Hungary vs Switzerland (2024-06-15),Goal,06:00.0,Hungary,Barnab√°s Varga,D. Szoboszlai,2-Jan,66,0,,,,52903,785998,18732,19045701,,,,,
116136215,Hungary vs Switzerland (2024-06-15),Goal,33:00.0,Switzerland,Breel Embolo,,3-Jan,90,3,Substitution,14:00.0,1140,32538,,18708,19045701,,,,,
116135556,Hungary vs Switzerland (2024-06-15),Substitution,14:00.0,Switzerland,Breel Embolo,Rub√©n Vargas,,74,0,,,,32538,1478864,18708,19045701,,,,,
116135269,Hungary vs Switzerland (2024-06-15),Substitution,07:00.0,Hungary,L√°szl√≥ Kleinheisler,√Åd√°m Nagy,,67,0,,,,32460,114226,18732,19045701,,,,,
116304078,Georgia vs Czech Republic (2024-06-22),Substitution,55:00.0,Czech Republic,Matej Jurasek,Vaclav Cerny,,55,0,,,,37316360,25709,18718,19032642,,,,,
116303856,Georgia vs Czech Republic (2024-06-22),Yellowcard,47:00.0,Czech Republic,David Jur√°sek,,,47,0,,,,37259977,,18718,19032642,,,,,
116304429,Georgia vs Czech Republic (2024-06-22),Substitution,08:00.0,Czech Republic,Mojm√≠r Chytil,Patrik Schick,,68,0,,,,26313942,80675,18718,19032642,,,,,
116305086,Georgia vs Czech Republic (2024-06-22),Yellowcard,23:00.0,Georgia,Anzor Mekvabishvili,,,83,0,,,,25922119,,18692,19032642,,,,,
116303411,Georgia vs Czech Republic (2024-06-22),Goal,49:00.0,Georgia,Georges Mikautadze,,Jan-00,45,4,,,,13963088,,18692,19032642,,,,,
116302863,Georgia vs Czech Republic (2024-06-22),VAR,23:00.0,Czech Republic,Adam Hlozek,,,23,0,,,,8101006,,18718,19032642,,,,,
116303413,Georgia vs Czech Republic (2024-06-22),VAR,45:00.0,Georgia,Khvicha Kvaratskhelia,,,45,0,,,,1479337,,18692,19032642,,,,,
116304077,Georgia vs Czech Republic (2024-06-22),Substitution,55:00.0,Czech Republic,Ondrej Lingr,Adam Hlozek,,55,0,,,,608247,8101006,18718,19032642,,,,,
116305756,Georgia vs Czech Republic (2024-06-22),Yellowcard,35:00.0,Georgia,Giorgi Kochorashvili,,,90,5,,,,106911,,18692,19032642,,,,,
116304271,Georgia vs Czech Republic (2024-06-22),Substitution,02:00.0,Georgia,Giorgi Chakvetadze,Zuriko Davitashvili,,62,0,,,,106821,539555,18692,19032642,,,,,
116304276,Georgia vs Czech Republic (2024-06-22),Substitution,02:00.0,Georgia,Luka Lochoshvili,Georgiy Tsitaishvili,,62,0,,,,104100,537257,18692,19032642,,,,,
116305076,Georgia vs Czech Republic (2024-06-22),Substitution,22:00.0,Georgia,Saba Lobjanidze,Khvicha Kvaratskhelia,,82,0,,,,103660,1479337,18692,19032642,,,,,
116305044,Georgia vs Czech Republic (2024-06-22),Substitution,22:00.0,Georgia,Giorgi Gvelesiani,Solomon Kvirkvelia,,82,0,Yellowcard,22:00.0,0,103247,169788,18692,19032642,,,,,
116305128,Georgia vs Czech Republic (2024-06-22),Yellowcard,22:00.0,Georgia,Giorgi Gvelesiani,,,82,0,,,,103247,,18692,19032642,,,,,
116303195,Georgia vs Czech Republic (2024-06-22),Yellowcard,40:00.0,Czech Republic,Lukas Provod,,,40,0,,,,83003,,18718,19032642,,,,,
116305027,Georgia vs Czech Republic (2024-06-22),Substitution,21:00.0,Czech Republic,Petr Sevcik,David Jur√°sek,,81,0,,,,80879,37259977,18718,19032642,,,,,
116304163,Georgia vs Czech Republic (2024-06-22),Goal,59:00.0,Czech Republic,Patrik Schick,Ondrej Lingr,1-Jan,59,0,,,,80675,608247,18718,19032642,,,,,
116304972,Georgia vs Czech Republic (2024-06-22),Yellowcard,21:00.0,Czech Republic,Tomas Soucek,,,81,0,,,,80655,,18718,19032642,,,,,
116305013,Georgia vs Czech Republic (2024-06-22),Substitution,21:00.0,Czech Republic,Anton√≠n Bar√°k,Lukas Provod,,81,0,,,,80331,83003,18718,19032642,,,,,
116302753,Georgia vs Czech Republic (2024-06-22),Yellowcard,18:00.0,Czech Republic,Vladim√≠r Coufal,,,18,0,,,,80304,,18718,19032642,,,,,
116304007,Georgia vs Czech Republic (2024-06-22),Yellowcard,53:00.0,Czech Republic,Tomas Holes,,,53,0,,,,79972,,18718,19032642,,,,,
116305389,Georgia vs Czech Republic (2024-06-22),Substitution,28:00.0,Georgia,Giorgi Kvilitaia,Georges Mikautadze,,88,0,,,,52880,13963088,18692,19032642,,,,,
116303118,Georgia vs Czech Republic (2024-06-22),Yellowcard,36:00.0,Georgia,Guram Kashia,,,36,0,,,,24150,,18692,19032642,,,,,
116286851,Netherlands vs France (2024-06-21),VAR,09:00.0,Netherlands,Xavi Simons,,,69,0,,,,37317392,,18694,19032631,,,,,
116286831,Netherlands vs France (2024-06-21),Substitution,13:00.0,Netherlands,Lutsharel Geertruida,Jeremie Frimpong,,73,0,,,,4598752,8403182,18694,19032631,,,,,
116286848,Netherlands vs France (2024-06-21),Substitution,15:00.0,France,Kingsley Coman,Ousmane Demb√©l√©,,75,0,,,,32659,32403,18647,19032631,,,,,
116286835,Netherlands vs France (2024-06-21),Substitution,13:00.0,Netherlands,Joey Veerman,Xavi Simons,,73,0,,,,29394,37317392,18694,19032631,,,,,
116286477,Netherlands vs France (2024-06-21),Yellowcard,31:00.0,Netherlands,Jerdy Schouten,,,31,0,,,,26786,,18694,19032631,,,,,
116286881,Netherlands vs France (2024-06-21),Substitution,19:00.0,Netherlands,Wout Weghorst,Memphis Depay,,79,0,,,,25317,929,18694,19032631,,,,,
116286836,Netherlands vs France (2024-06-21),Substitution,13:00.0,Netherlands,Georginio Wijnaldum,Jerdy Schouten,,73,0,,,,1365,26786,18694,19032631,,,,,
116286849,Netherlands vs France (2024-06-21),Substitution,15:00.0,France,Olivier Giroud,Marcus Thuram,,75,0,,,,798,99000,18647,19032631,,,,,
116555102,Austria vs Turkey (2024-07-02),Substitution,46:00.0,Austria,Alexander Prass,Phillipp Mwene,,46,0,,,,31626002,35141,18643,19032612,,,,,
116554900,Austria vs Turkey (2024-07-02),Yellowcard,42:00.0,Turkey,ƒ∞smail Y√ºksek,,,42,0,,,,22528506,,18716,19032612,,,,,
116554734,Austria vs Turkey (2024-07-02),Yellowcard,11:00.0,Turkey,Orkun K√∂k√ß√º,,,11,0,,,,4545376,,18716,19032612,,,,,
116555444,Austria vs Turkey (2024-07-02),Substitution,18:00.0,Turkey,Kerem Akt√ºrkoƒülu,Arda G√ºler,,78,0,,,,534383,37547467,18716,19032612,,,,,
116554874,Austria vs Turkey (2024-07-02),Yellowcard,38:00.0,Austria,Romano Schmid,,,38,0,,,,459660,,18643,19032612,,,,,
116555506,Austria vs Turkey (2024-07-02),Substitution,23:00.0,Turkey,ƒ∞rfan Can Kahveci,Orkun K√∂k√ß√º,,83,0,,,,201444,4545376,18716,19032612,,,,,
116555443,Austria vs Turkey (2024-07-02),Substitution,18:00.0,Turkey,Okay Yoku≈ülu,Kenan Yƒ±ldƒ±z,,78,0,,,,201060,37598725,18716,19032612,,,,,
116555168,Austria vs Turkey (2024-07-02),Yellowcard,52:00.0,Austria,Philipp Lienhart,,,52,0,,,,186848,,18643,19032612,,,,,
116555238,Austria vs Turkey (2024-07-02),Goal,59:00.0,Turkey,Merih Demiral,Arda G√ºler,0-2,59,0,Goal,01:00.0,3480,164069,37547467,18716,19032612,,,,,
116554692,Austria vs Turkey (2024-07-02),Goal,01:00.0,Turkey,Merih Demiral,,0-1,1,0,,,,164069,,18716,19032612,,,,,
116555307,Austria vs Turkey (2024-07-02),Substitution,04:00.0,Austria,Maximilian W√∂ber,Philipp Lienhart,,64,0,,,,52850,186848,18643,19032612,,,,,
116555223,Austria vs Turkey (2024-07-02),Substitution,58:00.0,Turkey,Salih √ñzcan,ƒ∞smail Y√ºksek,,58,0,,,,32622,22528506,18716,19032612,,,,,
116555299,Austria vs Turkey (2024-07-02),Substitution,04:00.0,Austria,Florian Grillitsch,Konrad Laimer,,64,0,,,,32378,52585,18643,19032612,,,,,
116555327,Austria vs Turkey (2024-07-02),Goal,06:00.0,Austria,Michael Gregoritsch,Stefan Posch,2-Jan,66,0,Substitution,46:00.0,1200,32361,33770,18643,19032612,,,,,
116555101,Austria vs Turkey (2024-07-02),Substitution,46:00.0,Austria,Michael Gregoritsch,Romano Schmid,,46,0,,,,32361,459660,18643,19032612,,,,,
116184667,Poland vs Netherlands (2024-06-16),Substitution,27:00.0,Netherlands,Micky van de Ven,Nathan Ak√©,,87,0,,,,37296248,1869,18694,19032628,,,,,
116184391,Poland vs Netherlands (2024-06-16),Substitution,21:00.0,Netherlands,Jeremie Frimpong,C. Gakpo,,81,0,,,,8403182,30062,18694,19032628,,,,,
116183146,Poland vs Netherlands (2024-06-16),Substitution,46:00.0,Poland,Jakub Moder,Sebastian Szymanski,,46,0,,,,1444078,156180,18699,19032628,,,,,
116183718,Poland vs Netherlands (2024-06-16),Substitution,02:00.0,Netherlands,Donyell Malen,Xavi Simons,,62,0,,,,537758,37317392,18694,19032628,,,,,
116183511,Poland vs Netherlands (2024-06-16),Substitution,55:00.0,Poland,Bartosz Slisz,Taras Romanczuk,,55,0,,,,506092,155299,18699,19032628,,,,,
116184282,Poland vs Netherlands (2024-06-16),Substitution,18:00.0,Poland,Jakub Piotrowski,Piotr Zieli≈Ñski,,78,0,,,,155889,129072,18699,19032628,,,,,
116182305,Poland vs Netherlands (2024-06-16),Goal,16:00.0,Poland,Adam Buksa,Piotr Zieli≈Ñski,Jan-00,16,0,,,,155460,129072,18699,19032628,,,,,
116183512,Poland vs Netherlands (2024-06-16),Substitution,55:00.0,Poland,Karol ≈öwiderski,Kacper Urbanski,,55,0,,,,155310,37382883,18699,19032628,,,,,
116184639,Poland vs Netherlands (2024-06-16),Substitution,26:00.0,Poland,Bartosz Bereszy≈Ñski,Bartosz Salamon,,86,0,,,,133972,129551,18699,19032628,,,,,
116182567,Poland vs Netherlands (2024-06-16),Goal,29:00.0,Netherlands,Cody Gakpo,Nathan Ak√©,1-Jan,29,0,,,,30062,1869,18694,19032628,,,,,
116182304,Poland vs Netherlands (2024-06-16),Yellowcard,15:00.0,Netherlands,Joey Veerman,,,15,0,,,,29394,,18694,19032628,,,,,
116184468,Poland vs Netherlands (2024-06-16),Goal,23:00.0,Netherlands,Wout Weghorst,Nathan Ak√©,2-Jan,83,0,Substitution,21:00.0,120,25317,1869,18694,19032628,,,,,
116184392,Poland vs Netherlands (2024-06-16),Substitution,21:00.0,Netherlands,Wout Weghorst,Memphis Depay,,81,0,,,,25317,929,18694,19032628,,,,,
116183764,Poland vs Netherlands (2024-06-16),Substitution,02:00.0,Netherlands,Georginio Wijnaldum,Joey Veerman,,62,0,,,,1365,29394,18694,19032628,,,,,
116633375,England vs Switzerland (2024-07-06),Substitution,58:00.0,Switzerland,Zeki Amdouni,Remo Freuler,,118,0,Penalty Shootout Goal,08:00.0,6600,37261110,130145,18708,19032604,,,,,
116633704,England vs Switzerland (2024-07-06),Penalty Shootout Goal,08:00.0,Switzerland,Zeki Amdouni,,3-Apr,8,0,,,,37261110,,18708,19032604,,,,,
116633545,England vs Switzerland (2024-07-06),Penalty Shootout Goal,03:00.0,England,Jude Bellingham,,Feb-00,3,0,,,,37255840,,18645,19032604,,,,,
116632382,England vs Switzerland (2024-07-06),Substitution,18:00.0,England,Cole Palmer,Ezri Konsa,,78,0,Penalty Shootout Goal,01:00.0,4620,28912747,7124,18645,19032604,,,,,
116633486,England vs Switzerland (2024-07-06),Penalty Shootout Goal,01:00.0,England,Cole Palmer,,Jan-00,1,0,,,,28912747,,18645,19032604,,,,,
116632419,England vs Switzerland (2024-07-06),Goal,20:00.0,England,Bukayo Saka,Declan Rice,1-Jan,80,0,Penalty Shootout Goal,05:00.0,4500,16827155,5273,18645,19032604,,,,,
116633596,England vs Switzerland (2024-07-06),Penalty Shootout Goal,05:00.0,England,Bukayo Saka,,1-Mar,5,0,,,,16827155,,18645,19032604,,,,,
116633511,England vs Switzerland (2024-07-06),Penalty Shootout Missed,02:00.0,Switzerland,Manuel Akanji,,Jan-00,2,0,,,,198062,,18708,19032604,,,,,
116632870,England vs Switzerland (2024-07-06),Substitution,38:00.0,Switzerland,Denis Zakaria,Dan Ndoye,,98,0,,,,198051,19978623,18708,19032604,,,,,
116633374,England vs Switzerland (2024-07-06),Substitution,58:00.0,Switzerland,Vincent Sierro,Michel Aebischer,,118,0,,,,198045,198220,18708,19032604,,,,,
116632500,England vs Switzerland (2024-07-06),Yellowcard,25:00.0,Switzerland,Silvan Widmer,,,85,0,Substitution,03:00.0,1320,129609,,18708,19032604,,,,,
116632185,England vs Switzerland (2024-07-06),Substitution,03:00.0,Switzerland,Silvan Widmer,Fabian Rieder,,63,0,,,,129609,24817439,18708,19032604,,,,,
116632334,England vs Switzerland (2024-07-06),Goal,15:00.0,Switzerland,Breel Embolo,Dan Ndoye,0-1,75,0,,,,32538,19978623,18708,19032604,,,,,
116631369,England vs Switzerland (2024-07-06),Yellowcard,32:00.0,Switzerland,Fabian Sch√§r,,,32,0,Penalty Shootout Goal,04:00.0,1680,32372,,18708,19032604,,,,,
116633573,England vs Switzerland (2024-07-06),Penalty Shootout Goal,04:00.0,Switzerland,Fabian Sch√§r,,1-Feb,4,0,,,,32372,,18708,19032604,,,,,
116632186,England vs Switzerland (2024-07-06),Substitution,03:00.0,Switzerland,Steven Zuber,Rub√©n Vargas,,63,0,,,,32116,1478864,18708,19032604,,,,,
116632378,England vs Switzerland (2024-07-06),Substitution,18:00.0,England,Eberechi Eze,Kieran Trippier,,78,0,,,,7643,1016,18645,19032604,,,,,
116633214,England vs Switzerland (2024-07-06),Substitution,49:00.0,England,Ivan Toney,Harry Kane,,109,0,Penalty Shootout Goal,07:00.0,6120,4341,997,18645,19032604,,,,,
116633661,England vs Switzerland (2024-07-06),Penalty Shootout Goal,07:00.0,England,Ivan Toney,,2-Apr,7,0,,,,4341,,18645,19032604,,,,,
116633310,England vs Switzerland (2024-07-06),Substitution,55:00.0,England,Trent Alexander-Arnold,Phil Foden,,115,0,Penalty Shootout Goal,09:00.0,6360,1917,336133,18645,19032604,,,,,
116633740,England vs Switzerland (2024-07-06),Penalty Shootout Goal,09:00.0,England,Trent Alexander-Arnold,,3-May,9,0,,,,1917,,18645,19032604,,,,,
116633204,England vs Switzerland (2024-07-06),Substitution,49:00.0,Switzerland,Xherdan Shaqiri,Breel Embolo,,109,0,Penalty Shootout Goal,06:00.0,6180,1714,32538,18708,19032604,,,,,
116633625,England vs Switzerland (2024-07-06),Penalty Shootout Goal,06:00.0,Switzerland,Xherdan Shaqiri,,2-Mar,6,0,,,,1714,,18708,19032604,,,,,
116632241,England vs Switzerland (2024-07-06),Yellowcard,07:00.0,England,Harry Kane,,,67,0,,,,997,,18645,19032604,,,,,
116632388,England vs Switzerland (2024-07-06),Substitution,18:00.0,England,Luke Shaw,Kobbie Mainoo,,78,0,,,,955,37540234,18645,19032604,,,,,